X,Y,objectid,wri_id,mill_name_,latitude,longitude,iso,certificat,group_name
103.185600000014304,1.926200000492688,1,WRI_1,Ayer Itam Oil Mill,1.9262,103.1856,MYS,None,Unknown
103.137700000095123,3.3029999994402,2,WRI_10,Bukit Lee Lau,3.303,103.1377,MYS,None,Unknown
111.558899999481426,-2.130600000430508,3,WRI_100,Gemareksa Mekarsari,-2.1306,111.5589,IDN,None,Unknown
115.509300000112503,-1.990600000380786,4,WRI_101,Astra Agro Lestari,-1.9906,115.5093,IDN,None,Unknown
111.320399999968274,1.623599999374104,39,WRI_157,THP Saribas,1.6236,111.3204,MYS,None,Unknown
110.822100000527811,1.115799999725991,40,WRI_158,Masranti Plantation,1.1158,110.8221,MYS,None,Unknown
103.318099999743822,4.573300000041745,114,WRI_253,K.K.S Rasau Kerteh,4.5733,103.3181,MYS,None,Unknown
117.887500000071498,4.263300000023394,115,WRI_254,AUMKAR OIL MILL,4.2633,117.8875,MYS,None,Unknown
116.70830000046162,6.571700000668746,116,WRI_255,K.K.S. LANGKON,6.5717,116.7083,MYS,None,Unknown
118.186700000562482,4.469500000195537,117,WRI_256,KILANG KELAPA SAWIT KUNAK,4.4695,118.1867,MYS,None,Unknown
102.409399999598719,2.533600000435628,120,WRI_26,Dupont & Leosk,2.5336,102.4094,MYS,None,Unknown
118.437699999761961,4.489200000191881,121,WRI_260,KILANG KELAPA SAWIT SEGARIA,4.4892,118.4377,MYS,None,Unknown
118.042199999840463,5.885699999981855,122,WRI_263,KKS SEGALIUD,5.8857,118.0422,MYS,None,Unknown
-76.491099999843982,-8.335299999992703,152,WRI_304,Palmawasi,-8.3353,-76.4911,PER,None,Unknown
98.947099999361129,3.56820000032798,190,WRI_401,PTPN IV (Adolina),3.5682,98.9471,IDN,None,Unknown
98.594100000708835,3.761899999554304,191,WRI_403,Serdang Cemerlang,3.7619,98.5941,IDN,None,Unknown
99.212099999718504,3.276000000117614,192,WRI_404,Sumber Sawit Makmur,3.276,99.2121,IDN,None,Unknown
102.312000000526368,3.21309999952509,193,WRI_376,KS BUKIT MENDI-PAHANG,3.2131,102.312,MYS,None,Unknown
102.076999999955191,4.293099999938812,194,WRI_377,Kechau,4.2931,102.077,MYS,None,Unknown
70.157499999738661,23.101200000293808,228,WRI_443,RUCHI SOYA INDS - GANDHIDHAM,23.1012,70.1575,IND,None,Unknown
-74.215200000710055,10.671800000557326,229,WRI_450,El Roble S.A.,10.6718,-74.2152,COL,None,Unknown
118.528100000052007,5.414100000162435,232,WRI_46,Unico Oil Mill,5.4141,118.5281,MYS,None,Unknown
105.442799999847423,-4.136400000247776,235,WRI_465,Sungai Buaya,-4.1364,105.4428,IDN,None,Unknown
105.588300000652112,-4.218299999891937,236,WRI_466,Sungai Merah,-4.2183,105.5883,IDN,None,Unknown
116.021900000286493,-3.198100000237916,237,WRI_469,Batu Ampar,-3.1981,116.0219,IDN,None,Unknown
102.485800000527533,-2.072200000078886,238,WRI_470,Jelatang,-2.0722,102.4858,IDN,None,Unknown
102.374400000297271,-2.100800000185342,239,WRI_471,Langling,-2.1008,102.3744,IDN,None,Unknown
117.827699999617295,5.718099999912389,266,WRI_55,Atlantica,5.7181,117.8277,MYS,None,Unknown
101.140500000205847,0.956299999917476,304,WRI_664,LIBO SAWIT PERKASA,0.9563,101.1405,IDN,None,Unknown
118.203500000155287,4.666999999659945,305,WRI_671,SANG GUAN,4.667,118.2035,MYS,None,Unknown
100.494399999321303,1.140200000026928,306,WRI_673,PT PERDANA INTISAWIT SEI AIR HITAM MILL,1.1402,100.4944,IDN,None,Unknown
102.679899999961819,2.009399999531895,342,WRI_730,Kilang Sawit United Bell,2.0094,102.6799,MYS,None,Unknown
113.658299999738375,3.761899999554304,379,WRI_775,Desa Kim Loong Palm Oil,3.7619,113.6583,MYS,None,Unknown
103.468000000014086,1.565500000800899,380,WRI_776,Kim Loong Sabah Mill,1.5655,103.468,MYS,None,Unknown
103.438499999820095,2.342299999660767,381,WRI_777,Keningau Palm Oil  Mill,2.3423,103.4385,MYS,None,Unknown
117.390999999881615,6.648300000201801,382,WRI_778,Genting SDC (Sabapalm Mill),6.6483,117.391,MYS,None,Unknown
100.781199999685029,4.151200000532968,384,WRI_780,Kilang Kelapa Sawit Pinangah,4.1512,100.7812,MYS,None,Unknown
118.22279999950571,4.455400000082854,385,WRI_781,Konsep Muktamad,4.4554,118.2228,MYS,None,Unknown
117.834599999738799,5.659799999998221,282,WRI_586,KRETAM,5.6598,117.8346,MYS,None,Unknown
100.591200000140688,1.749999999759746,417,WRI_837,Salim Ivomas Pratama - PKS Sungai Dua,1.75,100.5912,IDN,None,Unknown
100.723799999429303,0.959500000276923,418,WRI_838,Sumber Alam Makmur Sentosa,0.9595,100.7238,IDN,None,Unknown
100.699000000073156,0.892200000169974,419,WRI_844,Sumber Jaya Indahnusa,0.8922,100.699,IDN,None,Unknown
100.146800000217297,2.063100000453425,455,WRI_892,Anugerah Tanjung Medan,2.0631,100.1468,IDN,None,Unknown
100.045000000781044,2.039899999380453,456,WRI_893,Gunung Selamat Lestari,2.0399,100.045,IDN,None,Unknown
100.161400000526498,1.851100000755838,457,WRI_894,Herfinta,1.8511,100.1614,IDN,None,Unknown
98.136300000575531,4.053200000385849,493,WRI_950,PT MITRA NIAGA SEJATI JAYA,4.0532,98.1363,IDN,None,Unknown
98.431000000245163,3.653199999649512,531,WRI_1022,Sumber Sawit Mekar,3.6532,98.431,IDN,None,Unknown
101.648600000456796,-1.320099999338364,569,WRI_1099,Incasi Raya (PKS Pangian),-1.3201,101.6486,IDN,None,Unknown
100.917299999712284,-2.1842000000081,570,WRI_1100,Incasi Raya (PKS Sodetan),-2.1842,100.9173,IDN,None,Unknown
102.234699999972293,-1.684300000126601,571,WRI_1101,Mega Sawindo Perkasa,-1.6843,102.2347,IDN,None,Unknown
101.575700000266636,-1.250300000285705,572,WRI_1103,Selago Makmur Plantation,-1.2503,101.5757,IDN,None,Unknown
101.742300000570637,-0.997200000492437,573,WRI_1104,Sumbar Andalas Kencana,-0.9972,101.7423,IDN,None,Unknown
96.474299999663003,4.048900000132379,606,WRI_1162,PT SAWIT NAGAN RAYA MAKMUR,4.0489,96.4743,IDN,None,Unknown
99.723699999809782,1.428300000349539,607,WRI_1163,PT SINARLIKA PORTIBIJAYA PLANTATION,1.4283,99.7237,IDN,None,Unknown
99.017800000267655,3.367499999912694,608,WRI_1169,Tunas Harapan Sawit,3.3675,99.0178,IDN,None,Unknown
109.175400000431537,0.299799999728398,609,WRI_1171,Peniti Sungai Parun,0.2998,109.1754,IDN,None,Unknown
103.038200000399925,2.270899999618621,645,WRI_1239,unknown,2.2709,103.0382,MYS,None,Unknown
-48.704899999664832,-2.542799999825614,646,WRI_1240,unknown,-2.5428,-48.7049,BRA,None,Unknown
101.993700000701523,2.468500000081419,647,WRI_1242,unknown,2.4685,101.9937,MYS,None,Unknown
102.104700000000349,4.24069999975942,650,WRI_1255,unknown,4.2407,102.1047,MYS,None,Unknown
97.939400000011332,4.181799999352147,651,WRI_1258,unknown,4.1818,97.9394,IDN,None,Unknown
97.369800000513024,4.936900000728415,652,WRI_1259,unknown,4.9369,97.3698,IDN,None,Unknown
101.639399999695925,0.466099999526232,675,WRI_1308,unknown,0.4661,101.6394,IDN,None,Unknown
102.004400000239002,4.836500000266716,686,WRI_1323,unknown,4.8365,102.0044,MYS,None,Unknown
102.45840000005802,3.287299999619195,687,WRI_1325,unknown,3.2873,102.4584,MYS,None,Unknown
102.697200000045143,2.084599999405166,688,WRI_1326,unknown,2.0846,102.6972,MYS,None,Unknown
103.525300000710715,1.513899999788057,689,WRI_1327,unknown,1.5139,103.5253,MYS,None,Unknown
102.506599999552833,2.49880000032762,690,WRI_1329,unknown,2.4988,102.5066,MYS,None,Unknown
103.123400000259892,2.15740000024852,691,WRI_1330,unknown,2.1574,103.1234,MYS,None,Unknown
103.656400000324439,2.368200000467185,725,WRI_1377,unknown,2.3682,103.6564,MYS,None,Unknown
103.535099999724594,2.721300000118428,726,WRI_1378,unknown,2.7213,103.5351,MYS,None,Unknown
-73.235100000049698,10.097699999476962,727,WRI_1379,unknown,10.0977,-73.2351,COL,None,Unknown
-48.752736000009918,-2.250828000553815,785,WRI_2125,CPA POM,-2.250828,-48.752736,BRA,RSPO Certified,Agropalma Group
101.355199999547224,3.145600000511205,765,WRI_1457,unknown,3.1456,101.3552,MYS,None,Unknown
96.161499999843898,4.45739999993877,766,WRI_1460,unknown,4.4574,96.1615,IDN,None,Unknown
102.679499999928723,2.611599999773029,767,WRI_1463,unknown,2.6116,102.6795,MYS,None,Unknown
103.65939999967425,2.410099999891979,768,WRI_1464,unknown,2.4101,103.6594,MYS,None,Unknown
116.944199999759775,6.672800000616069,769,WRI_1469,unknown,6.6728,116.9442,MYS,None,Unknown
102.387599999592354,2.804599999624198,770,WRI_1470,unknown,2.8046,102.3876,MYS,None,Unknown
113.766599999263036,3.449499999385513,771,WRI_1471,unknown,3.4495,113.7666,MYS,None,Unknown
100.745899999909653,5.606399999676381,772,WRI_1472,unknown,5.6064,100.7459,MYS,None,Unknown
103.885200000382838,1.486199999907429,773,WRI_1474,unknown,1.4862,103.8852,MYS,None,Unknown
102.487999999811137,2.485000000546926,774,WRI_1476,unknown,2.485,102.488,MYS,None,Unknown
101.792500000230888,3.986499999908142,775,WRI_1477,unknown,3.9865,101.7925,MYS,None,Unknown
101.511699999465066,2.86369999984461,776,WRI_1479,unknown,2.8637,101.5117,MYS,None,Unknown
103.20410000019686,4.118699999497343,777,WRI_1480,unknown,4.1187,103.2041,MYS,None,Unknown
101.169999999501528,3.986999999369959,778,WRI_1482,unknown,3.987,101.17,MYS,None,Unknown
99.300699999859674,3.31499999976143,779,WRI_1486,unknown,3.315,99.3007,IDN,None,Unknown
-73.111499999708755,3.035599999876157,780,WRI_1487,unknown,3.0356,-73.1115,COL,None,Unknown
97.960900000442024,4.088500000606555,781,WRI_1488,unknown,4.0885,97.9609,IDN,None,Unknown
-87.065099999412112,15.688700000234906,782,WRI_1490,unknown,15.6887,-87.0651,HND,None,Unknown
103.649999999795142,1.733332999689456,873,WRI_2167,Kulai POM,1.733333,103.65,MYS,RSPO Certified,FELDA
118.088600000084767,4.755299999887268,19,WRI_130,Baturong,4.7553,118.0886,MYS,RSPO Certified,Unknown
118.370000000001866,5.49349999984017,20,WRI_131,Morisem,5.4935,118.37,MYS,RSPO Certified,Unknown
103.392300000490678,2.11099999930924,21,WRI_132,Pamol Klauang,2.111,103.3923,MYS,RSPO Certified,Unknown
113.040800000320885,3.180899999850287,24,WRI_140,Lavang Palm Oil Mill,3.1809,113.0408,MYS,RSPO Certified,Unknown
112.334000000255188,-2.320600000052417,64,WRI_188,Sungai Rungau,-2.3206,112.334,IDN,RSPO Certified,Unknown
100.628399999624037,5.193600000455932,71,WRI_198,Kilang Kelapa Sawit Batu Lintang,5.1936,100.6284,MYS,RSPO Certified,Unknown
118.437600000202849,5.549099999428495,118,WRI_257,KILANG KELAPA SAWIT LEE PANG,5.5491,118.4376,MYS,RSPO Certified,Unknown
-48.690593999981836,-2.543341999433254,786,WRI_2265,Ind˙stria Agropalma,-2.543342,-48.690594,BRA,RSPO Certified,Agropalma Group
-3.528199999848837,5.281732999231562,787,WRI_2094,Usine SAMO POM,5.281733,-3.5282,CIV,RSPO Certified,SARL AGRIVAR: Agro Industrie VariÈe
-74.181285999908425,10.548546999941093,788,WRI_2182,Extractora Tequendama,10.548547,-74.181286,COL,RSPO Certified,Daabon Group
-73.455428000341627,7.706147000272036,789,WRI_2192,INDUSTRIAL AGRARIA LA PALMA LIMITADA-INDUPALMA LTDA,7.706147,-73.455428,COL,RSPO Certified,INDUSTRIAL AGRARIA LA PALMA LIMITADA-INDUPALMA LTDA
-88.559814000655592,15.582958999522198,790,WRI_2191,Extractora del Atlantico S.A.,15.582959,-88.559814,GTM,RSPO Certified,Corporacion Agroindustrial del Caribe S.A
98.947221999559858,3.593332999798039,791,WRI_2079,Adolina POM,3.593333,98.947222,IDN,RSPO Certified,PT Perkebunan Nusantara IV (PERSERO)
99.955277999460108,2.058055999795233,792,WRI_2090,Aek Nabara Selatan Palm Oil Mill,2.058056,99.955278,IDN,RSPO Certified,PT Perkebunan Nusantara III
100.102443999621045,1.621166999699371,793,WRI_2300,Aek Sigala gala Mill,1.621167,100.102444,IDN,RSPO Certified,PT. Barumun Agro Sentosa (Formerly known as: PT First Mujur Plantation and Industry)
100.150277999418009,1.792778000223703,794,WRI_2073,Aek Torop Palm Oil Mill,1.792778,100.150278,IDN,RSPO Certified,PT Perkebunan Nusantara III
99.616667000331475,2.83333299988891,795,WRI_2075,Air Batu POM,2.833333,99.616667,IDN,RSPO Certified,PT Perkebunan Nusantara IV (PERSERO)
100.541667000477204,10.561111000805489,796,WRI_2258,Alur Dumai POM,10.561111,100.541667,IDN,RSPO Certified,Sime Darby Plantation Sdn Bhd
115.443138999487047,-3.612139000526498,797,WRI_2285,Angsana Mini POM,-3.612139,115.443139,IDN,RSPO Certified,Sime Darby Plantation Sdn Bhd
99.23333300018551,2.983333000125407,798,WRI_2123,Bah Jambi POM,2.983333,99.233333,IDN,RSPO Certified,PT Perkebunan Nusantara IV (PERSERO)
116.021943999769121,3.198056000215975,799,WRI_2149,Batu Ampar Mill,3.198056,116.021944,IDN,RSPO Certified,PT Smart Tbk
103.549138999443912,0.115971999986267,800,WRI_2238,Bebunga POM,0.115972,103.549139,IDN,RSPO Certified,Sime Darby Plantation Sdn Bhd
98.824160000242614,3.459166999851178,801,WRI_2135,Begerpang,3.459167,98.82416,IDN,RSPO Certified,PT PP London Sumatra Indonesia Tbk
99.745832999902063,2.198889000071155,802,WRI_2087,Berangir POM,2.198889,99.745833,IDN,RSPO Certified,PT Perkebunan Nusantara IV (PERSERO)
100.084166999919574,1.676111000308846,803,WRI_2278,Binanga Mill,1.676111,100.084167,IDN,RSPO Certified,PT Austindo Nusantara Jaya Agri
101.868889000390695,0.456666999571679,804,WRI_2100,Buatan II POM,0.456667,101.868889,IDN,RSPO Certified,PT Inti Indosawit Subur
99.249999999708919,3.06666699993139,805,WRI_2225,Bukit Maradja POM,3.066667,99.25,IDN,RSPO Certified,SIPEF Group
102.983597000002732,-0.598127999224673,806,WRI_2293,Bumi Palma POM,-0.598128,102.983597,IDN,RSPO Certified,SINARMAS AGRIBUSSINESS - PT IVOMAS TUNGGAL
116.266417000014329,0.265332999791982,807,WRI_2104,Cakara POM,0.265333,116.266417,IDN,RSPO Certified,R.E.A. Holdings Plc
99.333332999472901,3.100000000268615,808,WRI_2121,Dolok Sinumbah POM,3.1,99.333333,IDN,RSPO Certified,PT Perkebunan Nusantara IV (PERSERO)
99.573889000126272,2.701111000170123,809,WRI_2091,Gunung Melayu,2.701111,99.573889,IDN,RSPO Certified,PT PP London Sumatra Indonesia Tbk
112.285277999630225,1.035833000547944,810,WRI_2276,"Kridatama Lancar, Sukamandang POM",1.035833,112.285278,IDN,RSPO Certified,Sime Darby Plantation Sdn Bhd
103.792778000186061,-1.075832999900711,811,WRI_2114,Ladang Panjang POM,-1.075833,103.792778,IDN,RSPO Certified,Sime Darby Plantation Sdn Bhd
100.583332999548418,1.666666999763366,812,WRI_2257,Manggala POM,1.666667,100.583333,IDN,RSPO Certified,Sime Darby Plantation Sdn Bhd
101.266666999353191,-2.599999999982892,813,WRI_2296,Mukomuko,-2.6,101.266667,IDN,RSPO Certified,SIPEF Group
115.650555999290631,-3.468610999540223,814,WRI_2203,Mustika POM,-3.468611,115.650556,IDN,RSPO Certified,Sime Darby Plantation Sdn Bhd
100.070169000208153,2.317249999464954,815,WRI_2089,Negeri Lama Mill,2.31725,100.070169,IDN,RSPO Certified,Socfin Group (PT Socfindo and Socfinco SA)
101.629999999816818,2.662778000612478,816,WRI_2270,Pabrik Kelapa Sawit Kencana Sawit Indonesia,2.662778,101.63,IDN,RSPO Certified,Wilmar International Ltd
102.075000000688107,-0.049999999585723,817,WRI_2153,Pabrik Kelapa Sawit Pangkalan Lesung POM,-0.05,102.075,IDN,RSPO Certified,PT Musim Mas
110.81751100001803,-2.433267000412588,818,WRI_2101,Paku Juang Mill,-2.433267,110.817511,IDN,RSPO Certified,Cargill Incorporated
99.945556000264034,2.112221999724974,819,WRI_2151,Pangkatan POM,2.112222,99.945556,IDN,RSPO Certified,M.P. Evans Group PLC
116.150139000467632,0.257500000223615,820,WRI_2108,Perdana POM,0.2575,116.150139,IDN,RSPO Certified,R.E.A. Holdings Plc
100.066667000717999,4.06666699961284,821,WRI_2141,Perlabian Palm Oil Mill - PT Tolan Tiga,4.066667,100.066667,IDN,RSPO Certified,Perlabian POM
112.539722000390171,-2.381111000143629,822,WRI_2109,PKS Sukajadi Sawit Mekar 1,-2.381111,112.539722,IDN,RSPO Certified,PT Agrowiratama
112.602610999882629,-2.370249999591618,823,WRI_2110,PKS Sukajadi Sawit Mekar 2,-2.37025,112.602611,IDN,RSPO Certified,PT Agrowiratama
105.183367000341235,-4.851550000079501,824,WRI_2139,PKS Tunas Baru Lampung,-4.85155,105.183367,IDN,RSPO Certified,PT Tunas Baru Lampung Tbk
116.51255599961577,-2.481443999496043,825,WRI_2255,Pondok Labu POM,-2.481444,116.512556,IDN,RSPO Certified,Sime Darby Plantation Sdn Bhd
116.761014000123183,-0.295789000704248,826,WRI_2103,PT. PRIMA MITRAJAYA MANDIRI-Benua Puhun,-0.295789,116.761014,IDN,RSPO Certified,M.P. Evans Group PLC
112.598830999659839,-1.595844000644629,827,WRI_2113,PT. Unggul Lestari,-1.595844,112.598831,IDN,RSPO Certified,PT. Unggul Lestari
101.971666999270028,0.348056000101868,828,WRI_2243,PT Adei Plantation - Nilo 1 POM,0.348056,101.971667,IDN,RSPO Certified,Kuala Lumpur Kepong Berhad
103.100000000121213,-1.066667000109601,829,WRI_2318,PT Agro Mitra Madani POM,-1.066667,103.1,IDN,RSPO Certified,PT Bakrie Sumatera Plantations TBK
109.512777999848979,1.42138899990271,830,WRI_2272,PT Agronusa Investama (Sambas) - Agronusa Investama POM,1.421389,109.512778,IDN,RSPO Certified,Wilmar International Ltd
99.626587999719206,0.198959000182519,831,WRI_2129,PT Agrowiratama POM,0.198959,99.626588,IDN,RSPO Certified,PT Agrowiratama
103.748138999732603,-2.350693999898619,832,WRI_2111,PT Berkat Sawit Sejati POM,-2.350694,103.748139,IDN,RSPO Certified,PT Berkat Sawit Sejati
116.149999999652124,-3.500000000410684,833,WRI_2088,PT Bersama Sejahtera Sakti-Gunung Aru POM,-3.5,116.15,IDN,RSPO Certified,Sime Darby Plantation Sdn Bhd
103.549138999443912,-0.115971999986267,834,WRI_2214,PT Bhumireksa Nusasejati-Mandah POM,-0.115972,103.549139,IDN,RSPO Certified,Sime Darby Plantation Sdn Bhd
116.203055999620446,-2.379167000565916,835,WRI_2239,PT Laguna Mandiri - Betung POM,-2.379167,116.203056,IDN,RSPO Certified,Sime Darby Plantation Sdn Bhd
112.647611000011111,-2.478166999575666,836,WRI_2112,PT MAJU ANEKA SAWIT & GAP POM,-2.478167,112.647611,IDN,RSPO Certified,PT Agrowiratama
112.543611000392914,-2.894443999943578,837,WRI_2275,PT Sarana Titian Permata POM,-2.894444,112.543611,IDN,RSPO Certified,Wilmar International Ltd
116.114166999774241,-2.439166999864002,838,WRI_2240,Rantau POM,-2.439167,116.114167,IDN,RSPO Certified,Sime Darby Plantation Sdn Bhd
99.343860999481237,3.130778000630672,839,WRI_2271,Sei Mangke POM,3.130778,99.343861,IDN,RSPO Certified,PT Perkebunan Nusantara III
111.953942000541829,-2.360233000033789,840,WRI_2242,Sekunyir POM,-2.360233,111.953942,IDN,RSPO Certified,Sime Darby Plantation Sdn Bhd
116.20638899995447,-2.507221999606646,841,WRI_2308,Selabak POM (Minamas Plantation),-2.507222,116.206389,IDN,RSPO Certified,Sime Darby Plantation Sdn Bhd
112.349675000091821,2.251724999533834,842,WRI_2267,Semilar Mill,2.251725,112.349675,IDN,RSPO Certified,PT Smart Tbk
112.340430999848323,2.248257999994499,843,WRI_2098,Semilar Mill,2.248258,112.340431,IDN,RSPO Certified,PT Smart Tbk
112.443889000041537,-2.480278000356086,844,WRI_2260,Sungai Purun POM,-2.480278,112.443889,IDN,RSPO Certified,PT Agro Indomas
115.283055999888219,3.790277999717082,845,WRI_2150,Tanah Laut Mill,3.790278,115.283056,IDN,RSPO Certified,PT Smart Tbk
112.238056000476789,-2.210555999844013,846,WRI_2277,"Teguh Sempurna, Pemantang POM",-2.210556,112.238056,IDN,RSPO Certified,Sime Darby Plantation Sdn Bhd
103.588833000633727,0.256500000319352,847,WRI_2143,Teluk Bakau POM,0.2565,103.588833,IDN,RSPO Certified,Sime Darby Plantation Sdn Bhd
112.373610999807696,-2.559974999610557,848,WRI_2295,Terawan Mill,-2.559975,112.373611,IDN,RSPO Certified,PT Agro Indomas
99.483333000200602,3.06666699993139,849,WRI_2226,Tinjowan POM,3.066667,99.483333,IDN,RSPO Certified,PT Perkebunan Nusantara IV (PERSERO)
102.1938889994222,0.286666999929579,850,WRI_2303,Ukui II,0.286667,102.193889,IDN,RSPO Certified,PT Inti Indosawit Subur
104.186360999782821,1.551917000326022,851,WRI_2236,Adela POM,1.551917,104.186361,MYS,RSPO Certified,FELDA
118.210000000243724,5.300000000012888,852,WRI_2186,Asia POM,5.3,118.21,MYS,RSPO Certified,Carotino/ JC Chang Group
118.789900000144755,5.608999999927226,853,WRI_2179,Bornion POM,5.609,118.7899,MYS,RSPO Certified,Kuala Lumpur Kepong Berhad
103.333055999705138,1.911666999868068,854,WRI_2170,Bukit Benut POM,1.911667,103.333056,MYS,RSPO Certified,Sime Darby Plantation Sdn Bhd
103.703005999534739,1.767830999411753,855,WRI_2312,Bukit Besar POM,1.767831,103.703006,MYS,RSPO Certified,FELDA
103.148700000106587,3.966899999921213,856,WRI_2159,Bukit Sagu POM,3.9669,103.1487,MYS,RSPO Certified,FELDA
102.817908999917904,3.816974000269696,857,WRI_2281,Carotino POM,3.816974,102.817909,MYS,RSPO Certified,Carotino/ JC Chang Group
100.700611000076165,4.27436099994212,858,WRI_2080,Changkat Chermin,4.274361,100.700611,MYS,RSPO Certified,Kuala Lumpur Kepong Berhad
100.453332999576489,4.990000000280138,859,WRI_2171,Chersonese POM,4.99,100.453333,MYS,RSPO Certified,Sime Darby Plantation Sdn Bhd
100.857222000322054,3.928056000517509,860,WRI_2174,Flemington POM,3.928056,100.857222,MYS,RSPO Certified,Sime Darby Plantation Sdn Bhd
103.342243999872153,1.800521999885009,861,WRI_2067,Gomali Oil Mill,1.800522,103.342244,MYS,RSPO Certified,IOI Group
101.016667000236424,3.8666670000106,862,WRI_2124,Jendarata Palm Oil Mill (P01),3.866667,101.016667,MYS,RSPO Certified,United Plantations Bhd
102.559150000081203,3.590383000230533,863,WRI_2163,Jengka 18 POM,3.590383,102.55915,MYS,RSPO Certified,FELDA
102.482221999971074,3.724999999675861,864,WRI_2164,Jengka 21 POM,3.725,102.482222,MYS,RSPO Certified,FELDA
102.530833000267975,3.826943999820483,865,WRI_2313,Jengka 3 POM,3.826944,102.530833,MYS,RSPO Certified,FELDA
102.601666999272197,3.684444000112123,866,WRI_2165,Jengka 8 POM,3.684444,102.601667,MYS,RSPO Certified,FELDA
118.417217000030732,5.431100000217159,867,WRI_2229,Jeroco Palm Oil Mill 1,5.4311,118.417217,MYS,RSPO Certified,Hap Seng Plantations Holdings Bhd
102.3296599995615,3.179845000054531,868,WRI_2166,Kemasul POM,3.179845,102.32966,MYS,RSPO Certified,FELDA
119.006599999651556,5.150900000143742,869,WRI_2160,KKS Baiduri Ayu,5.1509,119.0066,MYS,RSPO Certified,FELDA
119.189200000380495,5.195299999310047,870,WRI_2161,KKS Fajar Harapan,5.1953,119.1892,MYS,RSPO Certified,FELDA
118.223669999892095,4.465619999928105,871,WRI_2219,KLK (S) MILL 2,4.46562,118.22367,MYS,RSPO Certified,Kuala Lumpur Kepong Berhad
118.270937000149701,4.432592999501877,872,WRI_2222,KLK (S) PINANG POM,4.432593,118.270937,MYS,RSPO Certified,Kuala Lumpur Kepong Berhad
117.610383000342452,5.074150000125403,874,WRI_2221,Ladang Sabah Mill,5.07415,117.610383,MYS,RSPO Certified,IOI Group
102.815466999886624,3.878966999825871,875,WRI_2168,Lepar Utara 4 POM,3.878967,102.815467,MYS,RSPO Certified,FELDA
102.691666999529161,-3.970816999389887,876,WRI_2244,Lepar Utara 6 Plam oil Mill,-3.970817,102.691667,MYS,RSPO Certified,FELDA
101.449999999302875,3.699999999927813,877,WRI_2298,Lima Blas POM,3.7,101.45,MYS,RSPO Certified,United Plantations Bhd
118.588200000081883,5.083900000334522,878,WRI_2184,Lungmanis POM,5.0839,118.5882,MYS,RSPO Certified,Kuala Lumpur Kepong Berhad
103.964952999940536,1.54052500001684,879,WRI_2215,Masai Palm Oil Mill,1.540525,103.964953,MYS,RSPO Certified,Keck Seng (Malaysia) Berhad
117.235767000010185,5.577017000538832,880,WRI_2064,Mayvin Plam Oil Mill,5.577017,117.235767,MYS,RSPO Certified,IOI Group
118.051944000574494,5.271389000358486,881,WRI_2211,Melewar POM,5.271389,118.051944,MYS,RSPO Certified,Carotino/ JC Chang Group
102.489532999996328,3.921733000182989,882,WRI_2306,Padang Piol POM,3.921733,102.489533,MYS,RSPO Certified,FELDA
102.759000000664756,2.082999999813978,883,WRI_2213,Pagoh Palm Oil Mill,2.083,102.759,MYS,RSPO Certified,Sime Darby Plantation Sdn Bhd
117.391199999898163,5.996699999534049,884,WRI_2230,Pamol Sabah,5.9967,117.3912,MYS,RSPO Certified,IOI Group
117.092818999739947,5.688883000493037,885,WRI_2095,Ribubonus POM,5.688883,117.092819,MYS,RSPO Certified,PPB Oil Palms Berhad
118.571500000048175,5.019299999471301,886,WRI_2185,Rimmer POM,5.0193,118.5715,MYS,RSPO Certified,Kuala Lumpur Kepong Berhad
118.40539100001385,5.177210999823338,887,WRI_2194,Sabahmas POM,5.177211,118.405391,MYS,RSPO Certified,PPB Oil Palms Berhad
117.385942000640085,5.734146000581743,888,WRI_2178,Sapi POM,5.734146,117.385942,MYS,RSPO Certified,PPB Oil Palms Berhad
113.744128000135362,3.525583000436359,889,WRI_2180,Saremas 1 POM,3.525583,113.744128,MYS,RSPO Certified,PPB Oil Palms Berhad
117.750000000826788,5.720000000120137,890,WRI_2311,Segaliud Palm Oil Mill,5.72,117.75,MYS,RSPO Certified,Sime Darby Plantation Sdn Bhd
101.133333000120629,3.983332999211355,891,WRI_2314,Seri Pelangi POM,3.983333,101.133333,MYS,RSPO Certified,United Plantations Bhd
103.304167000329713,3.932000000345667,892,WRI_2205,SOU 12 Jabor POM,3.932,103.304167,MYS,RSPO Certified,Sime Darby Plantation Sdn Bhd
101.804750000570266,2.74888899967074,893,WRI_2261,SOU 13 Labu POM,2.748889,101.80475,MYS,RSPO Certified,Sime Darby Plantation Sdn Bhd
100.730599999991711,5.153100000086311,41,WRI_159,Malmaju Bina,5.1531,100.7306,MYS,None,Unknown
101.792785999562824,2.655302999718193,894,WRI_2176,SOU 14 Tanah Merah,2.655303,101.792786,MYS,RSPO Certified,Sime Darby Plantation Sdn Bhd
101.895278000008517,2.528333000176719,895,WRI_2193,SOU 15 - Sua Betong POM,2.528333,101.895278,MYS,RSPO Certified,Sime Darby Plantation Sdn Bhd
103.148393999784801,2.058808000601779,896,WRI_2319,SOU 19A Yong Peng,2.058808,103.148394,MYS,RSPO Certified,Sime Darby Plantation Sdn Bhd
102.733333000396982,2.18333299949189,897,WRI_2241,SOU 19 Nordanal Mill,2.183333,102.733333,MYS,RSPO Certified,Sime Darby Plantation Sdn Bhd
100.666667000035602,5.400000000063822,898,WRI_2282,SOU 1 Sungai Dingin,5.4,100.666667,MYS,RSPO Certified,Sime Darby Plantation Sdn Bhd
102.996577000088109,2.178013000232458,899,WRI_2083,SOU 20 Chaah,2.178013,102.996577,MYS,RSPO Certified,Sime Darby Plantation Sdn Bhd
116.000000000721059,5.250000000836693,900,WRI_2248,SOU 27 (Melalap),5.25,116,MYS,RSPO Certified,Sime Darby Plantation Sdn Bhd
118.200000000314972,4.583332999944639,901,WRI_2201,SOU 29 GIRAM,4.583333,118.2,MYS,RSPO Certified,Sime Darby Plantation Sdn Bhd
117.962700000002783,4.704599999913841,902,WRI_2202,SOU 30A Jeleta Bumi,4.7046,117.9627,MYS,RSPO Certified,Sime Darby Plantation Sdn Bhd
118.383333000264656,4.616666999250745,903,WRI_2290,SOU 30 Merotai POM,4.616667,118.383333,MYS,RSPO Certified,Sime Darby Plantation Sdn Bhd
113.67197999943248,3.260240000263676,904,WRI_2187,SOU 31 Lavang POM,3.26024,113.67198,MYS,RSPO Certified,Sime Darby Plantation Sdn Bhd
113.347730000238414,3.400940000035006,905,WRI_2232,SOU 32 Rajawali POM,3.40094,113.34773,MYS,RSPO Certified,Sime Darby Plantation Sdn Bhd
113.345417000078584,3.390203000150612,906,WRI_2234,SOU 33 Derawan POM,3.390203,113.345417,MYS,RSPO Certified,Sime Darby Plantation Sdn Bhd
101.093611000240017,4.890000000225668,907,WRI_2173,SOU 3 Elphil Mill,4.89,101.093611,MYS,RSPO Certified,Sime Darby Plantation Sdn Bhd
101.376849999765767,3.190161000452421,908,WRI_2284,SOU 7 Bukit Kerayong,3.190161,101.37685,MYS,RSPO Certified,Sime Darby Plantation Sdn Bhd
101.436135999485757,2.883333000317162,909,WRI_2204,SOU 8 East Mill,2.883333,101.436136,MYS,RSPO Certified,Sime Darby Plantation Sdn Bhd
101.731955999786976,2.678485999601697,910,WRI_2274,SOU 9A Sepang Mill,2.678486,101.731956,MYS,RSPO Certified,Sime Darby Plantation Sdn Bhd
101.35000000001547,2.916667000637928,911,WRI_2177,SOU 9 West Mill,2.916667,101.35,MYS,RSPO Certified,Sime Darby Plantation Sdn Bhd
117.29083300018965,6.203888999444451,912,WRI_2183,Sri Kamusan Palm Oil Mill,6.203889,117.290833,MYS,RSPO Certified,PPB Oil Palms Berhad
103.966666999875699,1.966667000526223,913,WRI_2132,Tunjuk Laut,1.966667,103.966667,MYS,RSPO Certified,Johor Corporation
101.249999999829768,3.699999999927813,914,WRI_2301,Ulu Basir POM,3.7,101.25,MYS,RSPO Certified,United Plantations Bhd
101.116667000422126,3.750000000094598,915,WRI_2305,Ulu bernam POM,3.75,101.116667,MYS,RSPO Certified,United Plantations Bhd
100.666667000035602,4.416666999877593,916,WRI_2304,United International Enterprises POM,4.416667,100.666667,MYS,RSPO Certified,United Plantations Bhd
117.361999999279817,5.746000000111825,917,WRI_2317,Wild Asia Sdn. Bhd. (Wild Asia Group Scheme),5.746,117.362,MYS,RSPO Certified,Wild Asia Sdn. Bhd. (Wild Asia Group Scheme)
145.984582999745044,-6.073193999445044,918,WRI_2264,Gusap Mill,-6.073194,145.984583,PNG,RSPO Certified,New Britain Palm Oil Ltd
150.287000000460779,-10.316332999911578,919,WRI_2223,Hagita POM,-10.316333,150.287,PNG,RSPO Certified,New Britain Palm Oil Ltd
151.010971899952011,-5.311114880670939,920,WRI_2117,Hargy Mill,-5.311115,151.010972,PNG,RSPO Certified,SIPEF Group
150.684400000090221,-5.623659999955116,921,WRI_2249,Kapiura,-5.62366,150.6844,PNG,RSPO Certified,New Britain Palm Oil Ltd
150.212110000150915,-5.591959999739904,922,WRI_2250,Kumbango,-5.59196,150.21211,PNG,RSPO Certified,New Britain Palm Oil Ltd
148.160793000111312,-8.769184000580699,923,WRI_2118,Mamba Mill,-8.769184,148.160793,PNG,RSPO Certified,New Britain Palm Oil Ltd
150.237349999723136,-5.622467999358349,924,WRI_2251,Mosa,-5.622468,150.23735,PNG,RSPO Certified,New Britain Palm Oil Ltd
151.224494000445077,5.094109000166791,925,WRI_2068,Navo Mill,5.094109,151.224494,PNG,RSPO Certified,SIPEF Group
150.033637999799339,-5.233511999445043,926,WRI_2252,Numundo,-5.233512,150.033638,PNG,RSPO Certified,New Britain Palm Oil Ltd
101.029199999534711,3.806700000235727,499,WRI_956,SPKS,3.8067,101.0292,MYS,None,Unknown
151.276300000085399,-2.874632999274196,927,WRI_2207,Poliamba Mill,-2.874633,151.2763,PNG,RSPO Certified,New Britain Palm Oil Ltd
148.198705000695639,-8.743386000189822,928,WRI_2119,Sangara Mill,-8.743386,148.198705,PNG,RSPO Certified,New Britain Palm Oil Ltd
150.086927000294452,-5.484084999238891,929,WRI_2085,Waraston,-5.484085,150.086927,PNG,RSPO Certified,New Britain Palm Oil Ltd
99.034997999345435,8.055852000610189,930,WRI_2072,Krabinoi Mill,8.055852,99.034998,THA,RSPO Certified,United Palm Oil Industry Public Company Limited (UPOIC)
99.330686000300489,8.000322000257116,931,WRI_2063,Lamthap Mill,8.000322,99.330686,THA,RSPO Certified,Univanich Palm Oil Public Company Limited
98.72913099925978,8.385822000010121,932,WRI_2065,Siam Mill,8.385822,98.729131,THA,RSPO Certified,Univanich Palm Oil Public Company Limited
98.920750999926256,8.578791999431235,933,WRI_2069,Topi Mill,8.578792,98.920751,THA,RSPO Certified,Univanich Palm Oil Public Company Limited
117.708500000538606,1.260300000870951,5,WRI_103,Gunta Samba,1.2603,117.7085,IDN,None,Unknown
108.024300000001588,-2.698700000622788,6,WRI_107,Steelindo Wahana Perkasa,-2.6987,108.0243,IDN,None,Unknown
103.495500000042725,-1.386300000312283,7,WRI_108,Bukit Bintang Sawit,-1.3863,103.4955,IDN,None,Unknown
103.301400000608425,2.006299999753803,8,WRI_11,Coronation Palm Oil Mill,2.0063,103.3014,MYS,None,Unknown
101.386800000364104,-0.108999999860624,9,WRI_110,Adimulia Agrolestari,-0.109,101.3868,IDN,None,Unknown
101.237500000143442,0.006199999602341,10,WRI_114,Ganda Buanindo,0.0062,101.2375,IDN,None,Unknown
101.904800000086382,0.3036000003604,11,WRI_115,Langgam Inti Hibrindo,0.3036,101.9048,IDN,None,Unknown
100.890100000157645,0.776699999800574,12,WRI_119,Multi Agro Sentosa,0.7767,100.8901,IDN,None,Unknown
100.397699999857679,1.301099999272321,13,WRI_120,Nagamas Agro Mulia,1.3011,100.3977,IDN,None,Unknown
101.087199999840067,0.582099999605685,14,WRI_124,Sewangi Sawit Sejahtera,0.5821,101.0872,IDN,None,Unknown
101.474299999965126,-0.213399999470523,15,WRI_125,Citra Riau Sarana,-0.2134,101.4743,IDN,None,Unknown
118.251899999666648,4.68629999991405,16,WRI_126,GIRAM OIL MILL,4.6863,118.2519,MYS,None,Unknown
103.282300000376225,2.010700000091724,17,WRI_129,Kian Hoe Plantations,2.0107,103.2823,MYS,None,Unknown
102.533000000837944,2.271200000527067,18,WRI_13,Lenga Palm Oil Industries,2.2712,102.533,MYS,None,Unknown
151.033299999750938,-5.316700000659499,22,WRI_133,Hargy,-5.3167,151.0333,PNG,None,Unknown
103.479700000532617,2.171400000052511,23,WRI_14,Kilang Sawit PPNJ Kahang,2.1714,103.4797,MYS,None,Unknown
102.40649999980802,3.633999999352305,25,WRI_141,Kerdau Palm Oil Mill,3.634,102.4065,MYS,None,Unknown
101.365800000423917,3.372400000266829,26,WRI_142,Tennamaram Palm Oil Mill,3.3724,101.3658,MYS,None,Unknown
101.369299999365907,3.185900000121308,27,WRI_143,Bukit Kerayong Palm Oil Mill,3.1859,101.3693,MYS,None,Unknown
101.775200000147521,4.204799999653615,28,WRI_144,Bukit Puteri Palm Oil Mill,4.2048,101.7752,MYS,None,Unknown
113.992199999955076,4.405600000476128,29,WRI_145,Sarawak Plantation Agriculture Development (Niah Mill),4.4056,113.9922,MYS,None,Unknown
109.985200000032762,1.490099999966589,30,WRI_146,Bau Palm Oil Mill,1.4901,109.9852,MYS,None,Unknown
111.384399999871533,1.706200000497905,31,WRI_147,Saratok Palm Oil Mill,1.7062,111.3844,MYS,None,Unknown
110.903300000056973,1.186199999461738,32,WRI_149,Melur Gemilang Palm Oil Mill,1.1862,110.9033,MYS,None,Unknown
113.750000000585061,3.799999999877618,33,WRI_150,Arah Bersama,3.8,113.75,MYS,None,Unknown
111.368899999937085,2.494499999552768,34,WRI_152,JT Oil Development,2.4945,111.3689,MYS,None,Unknown
113.719399999850907,3.656299999903148,35,WRI_153,Alambumi Palm Oil Mill,3.6563,113.7194,MYS,None,Unknown
112.381500000141273,2.976199999790635,36,WRI_154,Mukah Kilang Kelapa Sawit,2.9762,112.3815,MYS,None,Unknown
111.13889999977944,1.078600000096557,37,WRI_155,Tetangga Akrab Palm Oil Mill,1.0786,111.1389,MYS,None,Unknown
113.630799999709737,3.794399999717706,38,WRI_156,Seatex Development,3.7944,113.6308,MYS,None,Unknown
103.4798000000917,1.814299999975632,42,WRI_16,Hadapan Palm Oil Mill,1.8143,103.4798,MYS,None,Unknown
101.955100000204041,4.977899999818645,43,WRI_161,Sungai Terah Palm Oil Mill,4.9779,101.9551,MYS,None,Unknown
100.550699999935205,5.515599999436565,44,WRI_162,Taclico Company,5.5156,100.5507,MYS,None,Unknown
100.462100000692359,5.201899999638576,45,WRI_163,United Oil Palm Industries,5.2019,100.4621,MYS,None,Unknown
100.391899999377998,5.41679999939647,46,WRI_164,Wilmar Edible Oils,5.4168,100.3919,MYS,None,Unknown
99.216800000556361,2.999500000135643,47,WRI_165,Bakrie Sumatera Plantations,2.9995,99.2168,IDN,None,Unknown
100.189999999298593,2.229999999238678,48,WRI_166,Cisadane Sawit Raya,2.23,100.19,IDN,None,Unknown
100.14069999926366,2.285999999847023,49,WRI_167,Daya Labuhan Indah,2.286,100.1407,IDN,None,Unknown
100.186599999915728,1.900599999711831,50,WRI_168,Asam Jawa,1.9006,100.1866,IDN,None,Unknown
100.025400000058326,1.812199999486377,51,WRI_169,Kuala Mas Sawit Abadi,1.8122,100.0254,IDN,None,Unknown
99.784400000787556,2.58449999982381,52,WRI_170,Graha Dura Leidong Prima,2.5845,99.7844,IDN,None,Unknown
99.368600000534641,0.464300000318859,53,WRI_172,Tri Bahtera Srikandi,0.4643,99.3686,IDN,None,Unknown
100.238300000149167,1.606100000259279,54,WRI_175,Sibisa Mangatur,1.6061,100.2383,IDN,None,Unknown
100.191499999871795,1.159000000348837,55,WRI_176,Rantau Kasai,1.159,100.1915,IDN,None,Unknown
99.406200000051086,9.10669999996921,56,WRI_177,Saengsiri Agro-Industries Co. Ltd,9.1067,99.4062,THA,None,Unknown
99.857100000062871,9.012800000004582,57,WRI_178,S.P.O Agro-Industries Co. Ltd,9.0128,99.8571,THA,None,Unknown
102.986700000183021,2.455100000550784,58,WRI_18,Stable Win,2.4551,102.9867,MYS,None,Unknown
103.217299999491942,1.98080000039921,59,WRI_180,Genting Oil Mill,1.9808,103.2173,MYS,None,Unknown
102.399999999719611,2.733299999358282,60,WRI_181,Jeram Padang Mill,2.7333,102.4,MYS,None,Unknown
101.203099999993299,0.757199999538871,61,WRI_182,Sekarbumi Alamlestari Mill,0.7572,101.2031,IDN,None,Unknown
111.463699999692707,1.233600000519344,62,WRI_186,Sarawak  Land Consolidation & Rehabilitation Authorithy (Lubok Antu Mill),1.2336,111.4637,MYS,None,Unknown
101.44760000000268,1.66569999958432,63,WRI_187,Sei Lilin,1.6657,101.4476,IDN,None,Unknown
103.385399999470835,4.299299999542311,65,WRI_191,Kilang Kelapa Sawit Kemaman,4.2993,103.3854,MYS,None,Unknown
103.75469999992039,1.463400000333686,66,WRI_193,Kilang Kelapa Sawit Sedenak,1.4634,103.7547,MYS,None,Unknown
103.324799999848778,3.802200000721148,67,WRI_194,Sri Jelutung Palm Oil Mill,3.8022,103.3248,MYS,None,Unknown
100.94689999946543,4.173300000004621,68,WRI_195,Kilang Kelapa Sawit Felcra Seberang Perak,4.1733,100.9469,MYS,None,Unknown
101.787299999800808,2.996199999541215,69,WRI_196,Kilang Kelapa Sawit Lima Blas,2.9962,101.7873,MYS,None,Unknown
101.255799999411167,3.724400000364495,70,WRI_197,Kilang Kelapa Sawit Ulu Basir,3.7244,101.2558,MYS,None,Unknown
100.629399999706749,5.504399999756288,72,WRI_199,Kilang Kelapa Sawit Sungai Dingin,5.5044,100.6294,MYS,None,Unknown
103.623900000780623,1.802400000066119,73,WRI_20,Revenue Direction Palm Oil Mill,1.8024,103.6239,MYS,None,Unknown
112.000000000479332,1.999999999950246,74,WRI_201,Boustead Pelita Kanowit Oil Mill,2,112,MYS,None,Unknown
101.674100000319996,3.192300000398132,75,WRI_204,K.K.S Ulu Sembol,3.1923,101.6741,MYS,None,Unknown
103.858599999979489,1.693899999535802,76,WRI_206,K.K.S Tai Tak,1.6939,103.8586,MYS,None,Unknown
101.975799999670258,4.079299999672485,77,WRI_207,KKS Adela,4.0793,101.9758,MYS,None,Unknown
103.644499999789417,1.730999999695295,78,WRI_209,KKS Kulai,1.731,103.6445,MYS,None,Unknown
102.730299999638575,2.488600000264618,79,WRI_21,Chin Teck Plantations,2.4886,102.7303,MYS,None,Unknown
103.782199999949015,1.718900000589417,80,WRI_212,Kilang Kelapa Sawit Alaf,1.7189,103.7822,MYS,None,Unknown
102.879799999875786,2.045599999502287,81,WRI_213,Ban Dung Palm Oil Industries Sdn Bhd,2.0456,102.8798,MYS,None,Unknown
103.497800000682091,1.937499999488802,82,WRI_214,KKS Belitong,1.9375,103.4978,MYS,None,Unknown
103.676800000214996,1.765699999958779,83,WRI_215,KKS Bukit Besar,1.7657,103.6768,MYS,None,Unknown
100.918300000693307,5.673300000346068,84,WRI_216,Elite Palms Industries Sdn Bhd,5.6733,100.9183,MYS,None,Unknown
102.151000000685514,5.807399999659776,85,WRI_217,Kilang Kelapa Sawit Kemahang,5.8074,102.151,MYS,None,Unknown
102.274799999246341,4.999899999963188,86,WRI_218,Kilang Kelapa Sawit Paloh 3,4.9999,102.2748,MYS,None,Unknown
103.497399999750698,2.740100000674719,87,WRI_22,Endau Palm Oil Mill,2.7401,103.4974,MYS,None,Unknown
102.211399999392739,2.373999999457341,88,WRI_220,Kilang Kelapa Sawit Sri Lingga,2.374,102.2114,MYS,None,Unknown
102.44599999993082,2.900400000355206,89,WRI_222,Kilang Kelapa Sawit Serting,2.9004,102.446,MYS,None,Unknown
101.997900000150565,2.582600000156094,90,WRI_223,Kilang Kelapa Sawit Ulu Kanchong,2.5826,101.9979,MYS,None,Unknown
102.81980000030336,2.993399999933909,91,WRI_224,Kilang Kosfarm Sdn Bhd,2.9934,102.8198,MYS,None,Unknown
102.491200000075821,3.440200000149109,92,WRI_225,KKS Charuk Putting,3.4402,102.4912,MYS,None,Unknown
102.34570000016943,3.864499999972312,93,WRI_229,Kilang Kelapa Sawit Jerantut,3.8645,102.3457,MYS,None,Unknown
102.840400000210451,3.033899999875173,94,WRI_23,Wujud Wawasan,3.0339,102.8404,MYS,None,Unknown
102.689899999890542,3.558599999781082,95,WRI_230,Kilang Kelapa Sawit Felcra Maran,3.5586,102.6899,MYS,None,Unknown
102.976300000221201,2.962599999966103,96,WRI_232,KKS Keratong 9,2.9626,102.9763,MYS,None,Unknown
102.779400000555341,2.911600000774097,97,WRI_233,KKS Ladang Rompin,2.9116,102.7794,MYS,None,Unknown
101.259199999692356,4.196999999925041,98,WRI_237,Kilang Minyak Sawit Ulu Basir,4.197,101.2592,MYS,None,Unknown
101.260999999841204,4.203999999665286,99,WRI_238,Syarikat Cahaya Muda Perak (Oil Mil) Sdn Bhd,4.204,101.261,MYS,None,Unknown
101.310099999859631,4.000200000689297,100,WRI_239,KKS Besout,4.0002,101.3101,MYS,None,Unknown
102.475399999667374,3.148600000659768,101,WRI_24,Cheekah Kemayan,3.1486,102.4754,MYS,None,Unknown
101.430099999902822,2.853600000769732,102,WRI_240,KKS Changkat Cermin,2.8536,101.4301,MYS,None,Unknown
101.282399999814473,4.109700000293663,103,WRI_241,KKS Yee Lee Palm Oil Industries S/B,4.1097,101.2824,MYS,None,Unknown
100.461699999760938,4.978699999685311,104,WRI_242,KKS Ladang Gula,4.9787,100.4617,MYS,None,Unknown
100.445199999743792,5.310799999856782,105,WRI_243,Kilang Kalapa Sawit Kalumpang,5.3108,100.4452,MYS,None,Unknown
101.300499999963989,3.30190000057552,106,WRI_245,Bukit Rotan Palm Oil Mills Sdn Bhd,3.3019,101.3005,MYS,None,Unknown
101.306899999594989,3.360399999765897,107,WRI_246,K.K.S Kampung Kuantan Bhd,3.3604,101.3069,MYS,None,Unknown
101.38769999998938,3.138599999197528,108,WRI_247,K.K.S Golconda,3.1386,101.3877,MYS,None,Unknown
101.474399999524252,3.435900000778255,109,WRI_248,Kilang Kelapa Sawit Minyak,3.4359,101.4744,MYS,None,Unknown
102.483899999921221,2.985499999654907,110,WRI_25,Prosper Palm Oil Mill,2.9855,102.4839,MYS,None,Unknown
101.659199999536881,2.852699999774629,111,WRI_251,Seri Ulu Langat Palm Oil Sdn Bhd,2.8527,101.6592,MYS,None,Unknown
103.067599999238226,4.990599999959723,112,WRI_252,K.K.S Jerangau Barat,4.9906,103.0676,MYS,None,Unknown
102.019400000581257,-0.584699999780273,113,WRI_662,PERANAP,-0.5847,102.0194,IDN,None,Unknown
118.14050000033474,4.405499999920306,123,WRI_264,KKS SUNGAI BURUNG,4.4055,118.1405,MYS,None,Unknown
117.226400000641348,5.555299999299121,124,WRI_266,MAYVIN,5.5553,117.2264,MYS,None,Unknown
117.854300000020658,5.900300000648482,125,WRI_268,NAK PALM OIL MILL,5.9003,117.8543,MYS,None,Unknown
118.122200000168718,5.651600000086761,126,WRI_269,SEPAGAYA PALM OIL MILL,5.6516,118.1222,MYS,None,Unknown
101.959100000534875,2.592499999556189,127,WRI_27,Gan Teng Siew Realty,2.5925,101.9591,MYS,None,Unknown
103.656400000324439,2.406400000035181,128,WRI_272,KKS Nitar,2.4064,103.6564,MYS,None,Unknown
100.861600000046323,3.901400000132057,130,WRI_279,Kilang Kelapa Sawit Flemington,3.9014,100.8616,MYS,None,Unknown
102.457899999567516,3.104399999571571,131,WRI_28,Jeng Huat (Bahau) Realty,3.1044,102.4579,MYS,None,Unknown
101.476599999706195,2.859400000038848,132,WRI_280,Kilang Kelapa Sawit Eng Hong Sdn Bhd,2.8594,101.4766,MYS,None,Unknown
101.709799999230185,2.646899999892161,133,WRI_281,Kilang Kelapa Sawit Fermanagh,2.6469,101.7098,MYS,None,Unknown
101.733699999859368,2.819699999627455,134,WRI_282,Kilang Kelapa Sawit Sepang,2.8197,101.7337,MYS,None,Unknown
103.399700000204376,4.756499999801431,135,WRI_283,Kilang Kelapa Sawit Risda Durian Mas,4.7565,103.3997,MYS,None,Unknown
115.727300000175987,5.347499999939873,137,WRI_286,K.K.S.LUMADAN,5.3475,115.7273,MYS,None,Unknown
114.028400000254067,4.299399999874082,138,WRI_288,KILANG KELAPA SAWIT NIAH,4.2994,114.0284,MYS,None,Unknown
103.724599999676741,1.83050000034362,139,WRI_29,Ladang Petri Tenggara,1.8305,103.7246,MYS,None,Unknown
101.100000000000392,3.766700000124957,140,WRI_290,Kilang Kelapa Sawit Meru,3.7667,101.1,MYS,None,Unknown
110.431200000088438,1.461099999727194,141,WRI_292,Felcra Jaya Samarahan,1.4611,110.4312,MYS,None,Unknown
96.581800000019854,3.871499999942384,143,WRI_300,PT KALLISTA ALAM,3.8715,96.5818,IDN,None,Unknown
103.872099999748528,2.092200000817308,145,WRI_298,TENGGAROH,2.0922,103.8721,MYS,None,Unknown
103.912199999920929,2.162800000161123,146,WRI_299,TENGGAROH TIMUR,2.1628,103.9122,MYS,None,Unknown
103.90170000039997,1.743399999599265,147,WRI_30,Ladang Tai Tak (Kota Tinggi),1.7434,103.9017,MYS,None,Unknown
97.916999999955351,2.716999999839857,149,WRI_307,PT BANGUN SEMPURNA LESTARI JL .,2.717,97.917,IDN,None,Unknown
99.313800000493956,3.316399999653331,150,WRI_314,PT KARYA PRATAMA NIAGA JAYA JL .,3.3164,99.3138,IDN,None,Unknown
96.341300000341292,4.12530000064947,151,WRI_315,PT BEURATA SUBUR PERSADA,4.1253,96.3413,IDN,None,Unknown
98.401500000051129,3.620799999725174,153,WRI_316,PT SINAR LANGKAT PERKASA JL.,3.6208,98.4015,IDN,None,Unknown
98.344400000269374,3.854200000061022,154,WRI_323,PT CIPTA CHEMICAL MEDAN OIL,3.8542,98.3444,IDN,None,Unknown
99.958399999906945,2.761599999886668,155,WRI_325,PT SUMBER SAWIT JAYA LESTARI,2.7616,99.9584,IDN,None,Unknown
99.223399999305599,0.469899999733541,156,WRI_333,PT SAGO NAULI,0.4699,99.2234,IDN,None,Unknown
101.242400000099551,1.290000000177586,157,WRI_335,PT MUSTIKA AGUNG SAWIT SEJAHTERA Jl,1.29,101.2424,IDN,None,Unknown
-73.621800000141675,7.284000000335047,159,WRI_317,EXTRACTORA CENTRAL S.A.,7.284,-73.6218,COL,None,Unknown
-73.356399999751218,4.301200000019184,160,WRI_318,HACIENDA LA CABAÃ‘A S.A.,4.3012,-73.3564,COL,None,Unknown
118.333099999195809,5.644300000485083,161,WRI_319,TANJUNG,5.6443,118.3331,MYS,None,Unknown
103.364100000853313,1.789100000104749,162,WRI_32,Victory Eng Hoe Plantations,1.7891,103.3641,MYS,None,Unknown
117.658700000013155,5.781099999971777,163,WRI_321,MALSA,5.7811,117.6587,MYS,None,Unknown
-73.247999999769107,3.717699999110386,164,WRI_322,EXTRACTORA LA PAZ S.A.,3.7177,-73.248,COL,None,Unknown
110.749699999929845,0.059399999662063,165,WRI_378,Multi Prima Entakai,0.0594,110.7497,IDN,None,Unknown
103.961599999515016,1.80769999998947,166,WRI_324,KIM LOONG PALM OIL MILLS  SDN BHD,1.8077,103.9616,MYS,None,Unknown
100.52780000028703,1.024899999814547,167,WRI_385,Pujud Karya Sawit,1.0249,100.5278,IDN,None,Unknown
100.509999999713202,1.740000000574643,168,WRI_386,PTPN V (Tanah Putih),1.74,100.51,IDN,None,Unknown
104.209300000687364,1.545399999501222,169,WRI_327,KILANG KELAPA SAWIT SIANG,1.5454,104.2093,MYS,None,Unknown
100.580000000112676,1.579999999692189,170,WRI_387,PTPN V (Tanjung Medan),1.58,100.58,IDN,None,Unknown
103.329899999821421,3.846000000017442,171,WRI_33,Vila Sutera,3.846,103.3299,MYS,None,Unknown
117.786400000244001,5.698200000120845,172,WRI_330,PROLIFIC,5.6982,117.7864,MYS,None,Unknown
102.016899999925357,0.672699999517266,173,WRI_391,PTPN V (Sei Buantan),0.6727,102.0169,IDN,None,Unknown
117.294199999960554,5.648000000365545,174,WRI_336,TANAH,5.648,117.2942,MYS,None,Unknown
115.656699999726882,5.255299999839452,175,WRI_338,LUMADAN,5.2553,115.6567,MYS,None,Unknown
102.218199999955118,-0.153800000493906,176,WRI_339,PT GANDAERAH POM,-0.1538,102.2182,IDN,None,Unknown
100.431299999941658,5.536400000688324,177,WRI_34,Arah Kawasan,5.5364,100.4313,MYS,None,Unknown
103.906000000306491,1.45059999958395,178,WRI_345,Kilang Isi Sawit (Felda),1.4506,103.906,MYS,None,Unknown
102.648800000533782,2.148099999718902,179,WRI_346,Kilang Kelapa Sawit Bukit Pasir Sdn. Bhd. (Hok Huat Oil Mills),2.1481,102.6488,MYS,None,Unknown
118.341699999907078,5.02699999965893,180,WRI_348,KLK Premier Oils Sdn Bhd,5.027,118.3417,MYS,None,Unknown
100.738100000162831,4.855699999674678,181,WRI_35,Central Palm Oil Mill,4.8557,100.7381,MYS,None,Unknown
98.341900000511757,3.808100000070314,182,WRI_396,Makmur Abadi Raya,3.8081,98.3419,IDN,None,Unknown
-82.968600000621649,8.421199999696242,183,WRI_359,Palmatec Corporation de Costa Rica S.A,8.4212,-82.9686,CRI,None,Unknown
100.539499999907221,5.00779999972652,184,WRI_36,Elegant Palms,5.0078,100.5395,MYS,None,Unknown
-0.941000000570704,6.260000000063094,185,WRI_362,GHANA OIL PALM DEVELOPMENT COMPANY LTD,6.26,-0.941,GHA,None,Unknown
-69.764099999541713,18.725399999905139,186,WRI_363,Induspalma Dominicana,18.7254,-69.7641,DOM,None,Unknown
103.896300000851681,1.721800000592474,187,WRI_367,Ladang Tai Tak Sdn. Bhd,1.7218,103.8963,MYS,None,Unknown
100.728900000300257,4.877600000051884,188,WRI_37,Kilang Minyak Sawit Kamunting,4.8776,100.7289,MYS,None,Unknown
98.704099999924964,3.420200000333149,189,WRI_400,PTPN II ( Pagar Merbau),3.4202,98.7041,IDN,None,Unknown
100.721100000553477,4.150000000226871,195,WRI_38,Kilang Kelapa Sawit Lekir,4.15,100.7211,MYS,None,Unknown
115.276800000197298,4.777800000041982,196,WRI_383,Kumpulan Krisjati,4.7778,115.2768,MYS,None,Unknown
103.455399999870323,-1.339599999194851,197,WRI_426,Bukit Barisan Indah Prima,-1.3396,103.4554,IDN,None,Unknown
101.957599999961658,2.426399999241593,198,WRI_4,Bell - KSL,2.4264,101.9576,MYS,None,Unknown
100.905900000566092,4.875299999690588,199,WRI_40,Minsawi Industries (K. Kangsar),4.8753,100.9059,MYS,None,Unknown
103.79350000043442,-1.791800000671042,200,WRI_445,Bahari Gembira Ria,-1.7918,103.7935,IDN,None,Unknown
101.593000000349974,1.584800000548978,201,WRI_446,Murini Sam-Sam 2 (Pelintung),1.5848,101.593,IDN,None,Unknown
101.30020000038833,0.93749999963643,203,WRI_463,Samsam,0.9375,101.3002,IDN,None,Unknown
100.990599999935569,3.979700000533497,206,WRI_41,Syarikat Peladang & Perusahaan Minyak,3.9797,100.9906,MYS,None,Unknown
105.171799999892116,-3.808200000227473,208,WRI_592,Gunung Tua Abadi,-3.8082,105.1718,IDN,None,Unknown
104.354500000119785,-3.896500000131995,209,WRI_593,Perkebunan Mitra Ogan,-3.8965,104.3545,IDN,None,Unknown
105.060000000527111,-3.598599999678424,210,WRI_594,Telaga Hikmah,-3.5986,105.06,IDN,None,Unknown
98.397200000144636,3.494400000427752,211,WRI_595,PT. United Kingdom Indonesia Plantations,3.4944,98.3972,IDN,None,Unknown
98.194200000423436,4.012999999478526,212,WRI_598,Anugerah Langkat Makmur,4.013,98.1942,IDN,None,Unknown
98.152199999644736,4.291399999973158,213,WRI_622,GEDONG BIARA MILL,4.2914,98.1522,IDN,None,Unknown
99.427600000024356,2.680299999949495,214,WRI_632,PT DJAJA PUTRA INDONESIA,2.6803,99.4276,IDN,None,Unknown
98.042399999546859,4.186100000184338,215,WRI_633,PT KEPOKRAJA,4.1861,98.0424,IDN,None,Unknown
100.946099999399252,4.177300000050627,216,WRI_42,Perak Agro Mills,4.1773,100.9461,MYS,None,Unknown
100.165600000873852,1.85350000027972,217,WRI_645,PT HERFINTA FARM & PLANTATION,1.8535,100.1656,IDN,None,Unknown
98.305599999755358,3.588299999765174,218,WRI_646,PT KENCANA AMAL TANI,3.5883,98.3056,IDN,None,Unknown
117.233299999864556,4.207500000157685,220,WRI_77,Nunukan Jaya Lestari,4.2075,117.2333,IDN,None,Unknown
117.266299999898862,3.115500000336645,221,WRI_80,Sanggam Kahuripan Indonesia,3.1155,117.2663,IDN,None,Unknown
112.751400000640459,-2.115000000796737,222,WRI_89,Katingan Indah Utama,-2.115,112.7514,IDN,None,Unknown
131.475400000521347,-1.129800000002803,223,WRI_93,Henrison Inti Persada,-1.1298,131.4754,IDN,None,Unknown
111.667099999447004,-2.606200000280006,224,WRI_95,Kalimantan Sawit Abadi,-2.6062,111.6671,IDN,None,Unknown
111.618399999461658,-2.545799999695967,225,WRI_97,Subut Mas Abadi,-2.5458,111.6184,IDN,None,Unknown
100.703599999555294,4.829600000130721,226,WRI_44,Synn Palm Oil,4.8296,100.7036,MYS,None,Unknown
102.545400000066863,3.768500000350247,227,WRI_441,KS SEROJA (JENGKA 18)-PAHANG,3.7685,102.5454,MYS,None,Unknown
102.642199999987909,-2.185299999875533,240,WRI_473,Pelakar,-2.1853,102.6422,IDN,None,Unknown
104.466000000807412,-2.949200000629622,241,WRI_477,Pangkalan Panji,-2.9492,104.466,IDN,None,Unknown
99.235600000314591,3.012299999827768,242,WRI_478,Bumi Sawit,3.0123,99.2356,IDN,None,Unknown
103.176399999253391,-2.900199999931147,243,WRI_479,Muara Kandis,-2.9002,103.1764,IDN,None,Unknown
-2.117300000389882,7.200000000359413,244,WRI_480,8 DEGREES NORTH,7.2,-2.1173,GHA,None,Unknown
99.320499999700615,7.70999999965373,245,WRI_481,Lam Soon (Thailand) PCL - Trang Plant,7.71,99.3205,THA,None,Unknown
99.021900000157586,8.153800000235833,246,WRI_482,United Palm Oil Industry Public Company Limited (UPOIC) - Krabinoi,8.1538,99.0219,THA,None,Unknown
118.525799999412627,5.430299999592783,247,WRI_50,Unico Desa Plantations,5.4303,118.5258,MYS,None,Unknown
101.976400000618185,3.647200000382709,248,WRI_503,KS KRAU-PAHANG,3.6472,101.9764,MYS,None,Unknown
101.580000000173115,3.379999999643135,249,WRI_504,KS MEMPAGA-PAHANG,3.38,101.58,MYS,None,Unknown
102.478100000339836,2.997799999305502,250,WRI_506,KS SERTING HILIR-N. SEMBILAN,2.9978,102.4781,MYS,None,Unknown
102.42560000004022,4.936399999712935,251,WRI_508,KS ARING B-KELANTAN,4.9364,102.4256,MYS,None,Unknown
117.645299999803214,5.618299999705979,252,WRI_51,Ladang Mill,5.6183,117.6453,MYS,None,Unknown
101.864799999473107,0.653899999380274,254,WRI_514,PKS Sei Buatan,0.6539,101.8648,IDN,None,Unknown
110.292799999421831,-0.106799999986692,255,WRI_515,PKS Gunung Meliau,-0.1068,110.2928,IDN,None,Unknown
100.785300000473271,4.275299999803675,256,WRI_516,Kilang Kelapa Sawit Changkat Chermin,4.2753,100.7853,MYS,None,Unknown
117.868799999872408,5.817699999996447,259,WRI_53,Akrab Perkasa,5.8177,117.8688,MYS,None,Unknown
101.278599999500202,4.086599999853724,260,WRI_531,Kilang Kelapa Sawit Yee Lee Palm Oil Industries,4.0866,101.2786,MYS,None,Unknown
100.720400000046439,4.447699999892019,261,WRI_535,Kilang Kelapa Sawit United Int. Enterprise  (UIE),4.4477,100.7204,MYS,None,Unknown
102.931300000092705,3.366499999737881,262,WRI_539,CHINI 2 POM,3.3665,102.9313,MYS,None,Unknown
103.440099999952395,2.703299999968454,263,WRI_541,SELENDANG POM,2.7033,103.4401,MYS,None,Unknown
117.701099999926598,5.785300000113227,265,WRI_545,PEMBANGUNAN,5.7853,117.7011,MYS,None,Unknown
-87.887900000088507,15.743200000520563,267,WRI_552,COINSU,15.7432,-87.8879,HND,None,Unknown
-74.194799999921173,10.704400000132962,268,WRI_554,FRUPALMA S.A.,10.7044,-74.1948,COL,None,Unknown
-74.168900000024905,10.618899999392186,269,WRI_555,PALMACEITE S.A.,10.6189,-74.1689,COL,None,Unknown
-73.566300000492262,9.651499999908514,270,WRI_556,PALMAGRO S.A.,9.6515,-73.5663,COL,None,Unknown
-73.94410000029734,9.935999999995575,271,WRI_557,PALMARIGUANI S.A.,9.936,-73.9441,COL,None,Unknown
117.328000000061053,5.646000000488332,272,WRI_56,Ever-Yield,5.646,117.328,MYS,None,Unknown
-90.165799999387829,16.139700000165757,273,WRI_560,REPSA II,16.1397,-90.1658,GTM,None,Unknown
-88.564799999927104,15.581299999899963,274,WRI_564,EXPORTADORA ATLANTICO,15.5813,-88.5648,GTM,None,Unknown
-89.291799999866839,15.344800000716628,275,WRI_569,PATAXTE,15.3448,-89.2918,GTM,None,Unknown
116.087199999848124,5.334599999490088,276,WRI_57,Keningau Palm Oil  Mill,5.3346,116.0872,MYS,None,Unknown
99.703600000393166,0.238100000488486,277,WRI_573,PT. BERKAT SAWIT SEJAHTERA,0.2381,99.7036,IDN,None,Unknown
100.751500000372786,0.477200000274983,278,WRI_574,PT. FORTIUS AGRO ASIA,0.4772,100.7515,IDN,None,Unknown
99.995099999798157,1.073599999529464,279,WRI_579,PT. MANDIRI SAWIT BERSAMA,1.0736,99.9951,IDN,None,Unknown
117.562800000615667,6.473799999981914,280,WRI_58,Meridian Plantations,6.4738,117.5628,MYS,None,Unknown
-74.200000000351253,10.722200000128575,281,WRI_585,INVERSORA DEL MAGDALENA & CIA S.A.,10.7222,-74.2,COL,None,Unknown
-73.558299999830624,3.515899999387165,283,WRI_587,Agropecuaria Santa Maria S.A. San Martin,3.5159,-73.5583,COL,None,Unknown
118.165299999690916,5.638999999772878,284,WRI_59,Melangking Oil  Palm Plantation,5.639,118.1653,MYS,None,Unknown
-73.579400000228233,3.564600000094873,285,WRI_599,Entrepalmas S.A.S.,3.5646,-73.5794,COL,None,Unknown
103.642099999590926,1.558000000204952,286,WRI_6,EPA Management,1.558,103.6421,MYS,None,Unknown
115.705000000577456,5.308600000531584,287,WRI_60,Beaufort Palm Oil Mill,5.3086,115.705,MYS,None,Unknown
103.092400000390981,2.967599999876729,288,WRI_607,KILANG SAWIRA MAKMUR SDN.BHD.,2.9676,103.0924,MYS,None,Unknown
116.421100000064868,5.326300000284265,289,WRI_61,Sook Oil  Mill,5.3263,116.4211,MYS,None,Unknown
-82.944699999992451,8.435800000389699,290,WRI_611,COOPEAGROPAL EL ROBLE,8.4358,-82.9447,CRI,None,Unknown
-82.850500000286445,8.443300000134123,291,WRI_612,COOPEMAPACHI,8.4433,-82.8505,PAN,None,Unknown
-73.580799999445716,3.995099999872008,292,WRI_613,ALIANZA ORIENTAL S.A.,3.9951,-73.5808,COL,None,Unknown
-74.218600000092948,11.002700000323378,293,WRI_614,GRADESA S.A.,11.0027,-74.2186,COL,None,Unknown
-76.995500000238096,-0.382499999910412,294,WRI_620,EXTRACTORA RIO COCA S.A.,-0.3825,-76.9955,ECU,None,Unknown
118.412900000405841,4.509399999826449,296,WRI_63,Kilang Kelapa Sawit Pinangah,4.5094,118.4129,MYS,None,Unknown
-88.804199999963842,15.467999999806594,297,WRI_635,"EXTRACTORA LA FRANCIA, S. A.",15.468,-88.8042,GTM,None,Unknown
114.169899999829653,3.688899999368915,298,WRI_638,PELITA TINJAR,3.6889,114.1699,MYS,None,Unknown
118.198099999708674,4.476500000298683,299,WRI_64,QL Plantation,4.4765,118.1981,MYS,None,Unknown
110.455499999852393,1.390600000375162,300,WRI_642,SAMARAHAN JAYA,1.3906,110.4555,MYS,None,Unknown
117.341400000270994,6.659699999856356,301,WRI_643,GENTING JAMBONGANG,6.6597,117.3414,MYS,None,Unknown
99.618500000092311,2.706599999234034,302,WRI_657,PT ANUGRAH MULTI SAWITA,2.7066,99.6185,IDN,None,Unknown
117.882400000098897,4.247299999813023,303,WRI_66,Konsep Muktamad,4.2473,117.8824,MYS,None,Unknown
100.887499999942619,0.819299999755612,307,WRI_674,PT SUBUR ARUM MAKMUR SEMANANENEK MILL,0.8193,100.8875,IDN,None,Unknown
101.666800000165409,0.41439999925923,309,WRI_676,SI KIJANG,0.4144,101.6668,IDN,None,Unknown
110.673600000373341,-2.169899999498163,310,WRI_677,SANDIKA NATA PALMA,-2.1699,110.6736,IDN,None,Unknown
100.270300000100804,1.178499999630878,311,WRI_678,DALU DALU,1.1785,100.2703,IDN,None,Unknown
100.757200000395031,1.059999999876516,312,WRI_679,SONTANG,1.06,100.7572,IDN,None,Unknown
117.693500000196352,1.247800000013195,314,WRI_684,TELEN,1.2478,117.6935,IDN,None,Unknown
118.273300000538242,5.422999999861505,315,WRI_687,ASIATIC SRI TANJUNG POM,5.423,118.2733,MYS,None,Unknown
101.223200000308211,0.530900000237449,316,WRI_690,PT DIVA PRATAMA SAKTI,0.5309,101.2232,IDN,None,Unknown
100.554699999367699,0.610999999585673,317,WRI_691,PT LUBUK BENDAHARA PALMA INDUSTRI,0.611,100.5547,IDN,None,Unknown
100.525000000055456,0.675000000082474,318,WRI_694,PT MASUBA CITRA MANDIRI,0.675,100.525,IDN,None,Unknown
103.871499999698912,2.139999999418601,320,WRI_7,Kilang Sawit Risda Sg Ambat,2.14,103.8715,MYS,None,Unknown
118.282100000367748,4.618599999302482,321,WRI_70,Winsome Harvest Palm Oil Mill,4.6186,118.2821,MYS,None,Unknown
103.632800000169226,-1.538100000173607,322,WRI_701,SUNGAI BAHAR PACIFIC UTAMA,-1.5381,103.6328,IDN,None,Unknown
114.786300000503601,-3.725500000582362,323,WRI_704,PERKEBUNAN NUSANTARA XIII PELAIHARI,-3.7255,114.7863,IDN,None,Unknown
100.041900000075515,2.359700000528445,324,WRI_706,NEGERI LAMA I,2.3597,100.0419,IDN,None,Unknown
102.825600000783041,2.343699999793448,325,WRI_8,Kilang Sawit Bukit Kepong Felcra Bhd,2.3437,102.8256,MYS,None,Unknown
102.911199999777793,2.722200000218752,326,WRI_9,Pukin Palm Oil Mill,2.7222,102.9112,MYS,None,Unknown
103.051300000135882,2.251499999877589,327,WRI_709,Achi Jaya Plantations,2.2515,103.0513,MYS,None,Unknown
102.891799999969948,1.916799999897981,328,WRI_710,Bell Palm Industries,1.9168,102.8918,MYS,None,Unknown
102.482800000279411,2.324200000034057,329,WRI_712,Dominion Square,2.3242,102.4828,MYS,None,Unknown
103.267199999576547,2.02280000014991,330,WRI_713,Dara Lam Soon,2.0228,103.2672,MYS,None,Unknown
100.938299999652472,4.323499999262133,331,WRI_714,Kilang Sawit Felcra Berhad Sg Melikai,4.3235,100.9383,MYS,None,Unknown
102.718499999560962,2.077399999228255,332,WRI_715,Pamol Plantation,2.0774,102.7185,MYS,None,Unknown
102.624599999430629,2.600900000702139,333,WRI_716,Coronation Palm Oil Mill,2.6009,102.6246,MYS,None,Unknown
103.099600000088159,3.8927000001237,334,WRI_718,Kilang Sawit Muar,3.8927,103.0996,MYS,None,Unknown
117.53580000017925,5.706400000099491,335,WRI_720,Diamond Jubilee Oil Mill,5.7064,117.5358,MYS,None,Unknown
103.347399999921308,1.931099999776578,336,WRI_721,Bukit Benut Oil Palm Mill,1.9311,103.3474,MYS,None,Unknown
101.17449999942454,3.834200000056253,337,WRI_724,Suburban Properties,3.8342,101.1745,MYS,None,Unknown
101.105099999973007,4.924400000199363,338,WRI_725,Endau Palm Oil Mill,4.9244,101.1051,MYS,None,Unknown
118.145399999392524,5.423799999437888,339,WRI_726,Prosper Palm Oil Mill,5.4238,118.1454,MYS,None,Unknown
102.93999999946476,2.729500000203088,340,WRI_727,Kilang Kelapa Sawit Bukit Pasir,2.7295,102.94,MYS,None,Unknown
102.995599999571624,2.29119999945457,341,WRI_729,Kilang Sawit Panji Alam,2.2912,102.9956,MYS,None,Unknown
103.219000000081692,4.140699999901496,343,WRI_731,Ladang Tai Tak (Kota Tinggi),4.1407,103.219,MYS,None,Unknown
102.758399999716815,2.799899999541901,344,WRI_732,Perusahaan Minyak Sawit Bintang,2.7999,102.7584,MYS,None,Unknown
100.835799999709167,4.404099999683519,345,WRI_734,Sungei Kahang Palm Oil,4.4041,100.8358,MYS,None,Unknown
101.351900000621782,3.792199999612064,346,WRI_735,Victory Eng Hoe Plantations,3.7922,101.3519,MYS,None,Unknown
100.686700000403377,5.278800000032266,347,WRI_737,Arah Kawasan,5.2788,100.6867,MYS,None,Unknown
100.732499999699698,4.59310000040949,348,WRI_738,Awan Timur Palm Oil Mill Resources (Perak),4.5931,100.7325,MYS,None,Unknown
103.801400000638651,2.388199999654501,349,WRI_740,Felcra Processing & Engineering,2.3882,103.8014,MYS,None,Unknown
100.707100000293906,4.673899999977994,350,WRI_741,Kilang Minyak Sawit Kamunting,4.6739,100.7071,MYS,None,Unknown
103.621800000157805,1.888600000100386,351,WRI_742,Ladang Serasa,1.8886,103.6218,MYS,None,Unknown
100.468900000356442,4.954999999816097,352,WRI_743,Kilang Kelapa Sawit Lekir,4.955,100.4689,MYS,None,Unknown
101.281900000222294,4.159799999935645,353,WRI_744,Syarikat Peladang & Perusahaan Minyak,4.1598,101.2819,MYS,None,Unknown
100.671199999570604,4.251600000153589,354,WRI_745,Pinehill Plantations (Malaysia),4.2516,100.6712,MYS,None,Unknown
113.357500000013388,3.525299999954327,355,WRI_746,Sungai Kerang Development,3.5253,113.3575,MYS,None,Unknown
102.426699999682057,3.097499999706687,356,WRI_747,Synn Palm Oil,3.0975,102.4267,MYS,None,Unknown
117.568800000213614,6.466100000394939,358,WRI_749,Tian Siang Oil Mill (Air Kuning),6.4661,117.5688,MYS,None,Unknown
118.031099999371634,5.218099999677822,359,WRI_750,Tian Siang Oil Mill (Perak),5.2181,118.0311,MYS,None,Unknown
115.986300000037133,5.230799999619187,360,WRI_752,Melewar Properties,5.2308,115.9863,MYS,None,Unknown
118.555100000488451,4.989700000234627,361,WRI_753,Sankina Oil Mill,4.9897,118.5551,MYS,None,Unknown
103.434300000371053,1.965900000102199,362,WRI_754,THP Sabaco  (Sg Tenegang Mill),1.9659,103.4343,MYS,None,Unknown
103.361600000197413,2.058699999438122,363,WRI_758,Koong Shing,2.0587,103.3616,MYS,None,Unknown
101.096500000160063,3.968299999940374,364,WRI_759,Pontian Fico Plantation,3.9683,101.0965,MYS,None,Unknown
117.988599999899037,5.490100000445052,365,WRI_760,Golden Elate,5.4901,117.9886,MYS,None,Unknown
117.374399999407004,5.964400000392231,366,WRI_761,Genting SDC (Trushidup Mill),5.9644,117.3744,MYS,None,Unknown
117.708800000114294,5.517999999979942,367,WRI_762,Genting SDC (Tanjung Mill),5.518,117.7088,MYS,None,Unknown
100.483899999800357,5.207799999505688,368,WRI_764,Manilal & Sons (Malaya),5.2078,100.4839,MYS,None,Unknown
118.340100000673061,5.304700000409907,369,WRI_765,Tradelift Indopalm,5.3047,118.3401,MYS,None,Unknown
103.526000000319442,2.231900000412805,370,WRI_766,Syarikat Kretam Mill,2.2319,103.526,MYS,None,Unknown
99.228000000584359,8.519899999311999,371,WRI_767,Sabahmas Plantation  (Ribubonus),8.5199,99.228,THA,None,Unknown
117.620800000022712,5.710000000533685,372,WRI_768,Berkat Setia,5.71,117.6208,MYS,None,Unknown
116.960099999727305,6.67519999982776,373,WRI_769,Prolific Yield,6.6752,116.9601,MYS,None,Unknown
100.674100000259571,5.174800000731407,374,WRI_770,Malsa Corporation,5.1748,100.6741,MYS,None,Unknown
116.942500000068307,5.336400000102961,375,WRI_771,Wee Tee Tong Palm Oil Mill,5.3364,116.9425,MYS,None,Unknown
103.877999999787335,2.194700000189638,376,WRI_772,Ever-Yield,2.1947,103.878,MYS,None,Unknown
118.325999999956082,5.243999999789086,377,WRI_773,Tanah Emas Oil Palm Processing,5.244,118.326,MYS,None,Unknown
118.228499999527969,5.154099999819421,378,WRI_774,Tanjung Panjang Palm Oil Mill,5.1541,118.2285,MYS,None,Unknown
103.174700000460248,3.07719999995384,386,WRI_782,Sabah Softwood,3.0772,103.1747,MYS,None,Unknown
100.718700000354985,4.53700000008303,387,WRI_783,TSH Plantations (Sabahan Mill),4.537,100.7187,MYS,None,Unknown
110.290499999680748,-0.116099999770292,389,WRI_795,PTPN XIII (G. Meliau),-0.1161,110.2905,IDN,None,Unknown
106.004500000039826,-2.166099999276478,390,WRI_798,Putra Bangka Mandiri,-2.1661,106.0045,IDN,None,Unknown
102.920700000114337,-0.521299999926485,392,WRI_801,Agro Sarimas Indonesia,-0.5213,102.9207,IDN,None,Unknown
101.416600000133769,0.288499999956775,393,WRI_802,Bangun Tenera Riau,0.2885,101.4166,IDN,None,Unknown
101.324900000185366,0.166299999895083,394,WRI_805,Bina Sawit Nusantara,0.1663,101.3249,IDN,None,Unknown
101.581300000729783,0.542799999385601,396,WRI_808,Buditani Kembang Jaya,0.5428,101.5813,IDN,None,Unknown
100.398499999923871,1.813900000198597,397,WRI_809,Dwimitra Daya Riau,1.8139,100.3985,IDN,None,Unknown
100.611699999590357,0.884299999888936,398,WRI_810,Ekadura Indonesia,0.8843,100.6117,IDN,None,Unknown
101.267799999505286,0.137000000259901,399,WRI_811,Flora Wahana Tirta,0.137,101.2678,IDN,None,Unknown
102.205899999386986,-0.157899999588214,400,WRI_812,Gandaerah Hendana,-0.1579,102.2059,IDN,None,Unknown
100.676500000458063,1.585700000538376,401,WRI_814,Gunung Mas Raya,1.5857,100.6765,IDN,None,Unknown
101.273099999494491,1.006800000018874,402,WRI_815,Guna Agung Semesta,1.0068,101.2731,IDN,None,Unknown
101.287299999770582,1.430399999516636,403,WRI_816,Intan Sejati Andalan,1.4304,101.2873,IDN,None,Unknown
100.737100000080119,1.947400000433171,404,WRI_817,Jatimjaya Perkasa,1.9474,100.7371,IDN,None,Unknown
101.728900000360682,0.674599999945083,405,WRI_819,Kimia Tirta Utama,0.6746,101.7289,IDN,None,Unknown
100.95769999946036,1.635000000531153,406,WRI_821,Lahan Tani Sakti,1.635,100.9577,IDN,None,Unknown
102.088499999558834,1.548800000495727,408,WRI_823,Meskom Agro Sarimas,1.5488,102.0885,IDN,None,Unknown
101.005499999820401,0.705700000149551,409,WRI_825,Mitra Bumi,0.7057,101.0055,IDN,None,Unknown
100.885299999760662,0.770799999709207,410,WRI_827,Multi Agro Sentosa,0.7708,100.8853,IDN,None,Unknown
100.336599999745133,1.279700000292096,411,WRI_829,Nagamas Agro Mulia,1.2797,100.3366,IDN,None,Unknown
100.990199999902472,0.593099999619727,412,WRI_831,Peputra Masterindo,0.5931,100.9902,IDN,None,Unknown
100.529200000402838,0.683300000196842,413,WRI_833,Rohul Sawit Industri,0.6833,100.5292,IDN,None,Unknown
100.519000000457567,0.761299999646186,414,WRI_834,Sawit Asahan Indah,0.7613,100.519,IDN,None,Unknown
100.558499999681985,1.691900000429874,415,WRI_835,Salim Ivomas Pratama - PKS Balam,1.6919,100.5585,IDN,None,Unknown
101.390799999796613,-0.137000000259914,420,WRI_845,Surya Agrolika Reksa,-0.137,101.3908,IDN,None,Unknown
101.212499999872421,0.273699999925672,421,WRI_847,Tasma Puja,0.2737,101.2125,IDN,None,Unknown
102.273200000012352,-0.305199999471451,422,WRI_849,Tunggal Perkasa Plantation,-0.3052,102.2732,IDN,None,Unknown
100.49019999987226,1.765199999765994,423,WRI_850,Dharma Wungu Guna,1.7652,100.4902,IDN,None,Unknown
101.240199999917579,1.056900000002384,424,WRI_851,Murini Samsam,1.0569,101.2402,IDN,None,Unknown
101.621199999987297,0.449400000727168,425,WRI_852,Sinarsiak Dianpermai,0.4494,101.6212,IDN,None,Unknown
99.428499999649645,9.084400000226966,427,WRI_856,SANDAKAN BAY OIL MILL,9.0844,99.4285,THA,None,Unknown
102.93629999960794,2.488900000470645,428,WRI_857,Suburmas Plantations,2.4889,102.9363,MYS,None,Unknown
103.243799999437869,2.939000000244913,429,WRI_858,Serian Palm Oil Mill,2.939,103.2438,MYS,None,Unknown
101.145899999754135,3.745300000239864,430,WRI_859,Wealth Leap (Harvard Master),3.7453,101.1459,MYS,None,Unknown
114.026499999647797,3.941699999808035,431,WRI_860,Binu Plantations,3.9417,114.0265,MYS,None,Unknown
103.213099999144589,2.211199999332836,432,WRI_861,Kumpulan Krisjati (Trusan),2.2112,103.2131,MYS,None,Unknown
117.900300000231837,5.563699999970622,433,WRI_862,Solar Green (Judan),5.5637,117.9003,MYS,None,Unknown
111.931300000636512,2.465599999323069,434,WRI_865,RH Lundu Palm Oil Mill,2.4656,111.9313,MYS,None,Unknown
102.522000000826509,2.890800000257542,435,WRI_866,PSS Oil Mill,2.8908,102.522,MYS,None,Unknown
103.904400000174149,1.437600000141434,436,WRI_867,Woodman Kuala Baram Estates (Semanok Mill),1.4376,103.9044,MYS,None,Unknown
100.907000000207915,4.903600000029743,437,WRI_868,Mukah Kilang Kelapa Sawit,4.9036,100.907,MYS,None,Unknown
117.528799999600352,6.233799999737738,439,WRI_871,Sachiew Plantation,6.2338,117.5288,MYS,None,Unknown
100.515600000176335,5.052299999473938,440,WRI_872,Emrpesa (M),5.0523,100.5156,MYS,None,Unknown
96.15789999954616,4.453799999684683,441,WRI_875,PT. Mopoli Raya,4.4538,96.1579,IDN,None,Unknown
96.699999999914183,4.984999999520393,443,WRI_877,Blang Ketumba,4.985,96.7,IDN,None,Unknown
99.254000000039753,2.783100000251275,444,WRI_878,Prima Palm Latex Industri,2.7831,99.254,IDN,None,Unknown
99.441600000283927,2.79899999997044,445,WRI_879,Sawita Inter Perkasa,2.799,99.4416,IDN,None,Unknown
99.707399999809155,2.923900000200678,446,WRI_880,Sintong Abadi,2.9239,99.7074,IDN,None,Unknown
100.295599999947456,1.851399999976261,447,WRI_881,Simpang Kanan Lestarindo,1.8514,100.2956,IDN,None,Unknown
99.617799999585287,2.651400000436603,448,WRI_882,Socfindo (Aek Loba),2.6514,99.6178,IDN,None,Unknown
98.781000000445943,3.216999999452332,449,WRI_883,Cinta Raja,3.217,98.781,IDN,None,Unknown
98.8552999998536,3.395800000297535,450,WRI_884,Serdang Tengah,3.3958,98.8553,IDN,None,Unknown
98.763999999938292,3.327299999491983,451,WRI_885,Tales Inti Sawit,3.3273,98.764,IDN,None,Unknown
100.192399999497084,2.24060000042372,452,WRI_886,Cisadane Sawit Raya,2.2406,100.1924,IDN,None,Unknown
99.947700000369494,2.103100000015905,453,WRI_887,Pangkatan Indonesia,2.1031,99.9477,IDN,None,Unknown
100.099500000347774,2.333499999645717,454,WRI_888,Sawitta Unggul Jaya,2.3335,100.0995,IDN,None,Unknown
100.081700000672228,2.06059999975626,458,WRI_898,Tolan Tiga Indonesia,2.0606,100.0817,IDN,None,Unknown
99.999999999754252,1.000000000301925,459,WRI_899,Perkebunan Milano,1,100,IDN,None,Unknown
99.578300000360827,2.567499999980617,460,WRI_901,Kencana Inti Perkasa,2.5675,99.5783,IDN,None,Unknown
99.637899999900199,2.459000000385065,461,WRI_902,Kwalaintan Sawitselatan,2.459,99.6379,IDN,None,Unknown
100.081899999790437,2.226299999786968,462,WRI_903,Lingga Tiga Sawit,2.2263,100.0819,IDN,None,Unknown
99.963099999846506,1.065699999999407,463,WRI_907,Karya Agung Sawita,1.0657,99.9631,IDN,None,Unknown
97.964999999433658,3.260400000321343,464,WRI_910,Sawitta Jaya Lau Pakam,3.2604,97.965,IDN,None,Unknown
98.308600000003452,2.086500000061512,465,WRI_912,Nauli Sawit,2.0865,98.3086,IDN,None,Unknown
98.265600000040379,2.1149000002343,466,WRI_913,Sinar Gunung Sawit Raya,2.1149,98.2656,IDN,None,Unknown
117.479299999548815,6.351800000487317,467,WRI_915,Saengsiri Agro-Industries Co. Ltd,6.3518,117.4793,MYS,None,Unknown
112.340399999886188,-2.248100000246894,469,WRI_918,Semilar,-2.2481,112.3404,IDN,None,Unknown
102.910599999728191,2.737500000293331,470,WRI_919,Kilang Kelapa Sawit Felcra Bukit Kepong,2.7375,102.9106,MYS,None,Unknown
117.219699999638067,6.047500000758491,471,WRI_920,Kilang Kelapa Sawit Ladang Siang,6.0475,117.2197,MYS,None,Unknown
102.882000000057744,2.390699999549543,472,WRI_923,Kilang Kelapa Sawit Felcra Nasaruddin,2.3907,102.882,MYS,None,Unknown
102.685699999543203,3.57089999976468,473,WRI_924,Kilang Kelapa Sawit Felcra Seberang Perak,3.5709,102.6857,MYS,None,Unknown
117.884699999839938,5.401099999903852,474,WRI_925,Topaz Emas,5.4011,117.8847,MYS,None,Unknown
102.96209999994511,2.778500000751899,475,WRI_926,Kilang Kelapa Sawit Sungai Dingin,2.7785,102.9621,MYS,None,Unknown
102.806999999244724,2.666299999773557,476,WRI_927,Kilang Kelapa Sawit TRP,2.6663,102.807,MYS,None,Unknown
118.398199999639218,4.481599999531127,477,WRI_929,Boustead Emastulin (Segaria Mill),4.4816,118.3982,MYS,None,Unknown
102.372699999707521,-1.95779999935489,478,WRI_932,Sari Aditya Loka-1,-1.9578,102.3727,IDN,None,Unknown
102.896999999501688,5.109399999816425,479,WRI_934,K.K.S Maokil,5.1094,102.897,MYS,None,Unknown
100.716699999291251,5.178299999667764,480,WRI_935,KKS Telok Sengat,5.1783,100.7167,MYS,None,Unknown
104.04490000056532,1.566900000518556,481,WRI_936,Kilang Kosfarm Sdn Bhd,1.5669,104.0449,MYS,None,Unknown
103.529200000584083,2.309599999921687,483,WRI_939,Seri Intan Palm Oil Mill,2.3096,103.5292,MYS,None,Unknown
103.083000000511859,3.592599999687689,484,WRI_940,K.K.S. LUBUK ANTU,3.5926,103.083,MYS,None,Unknown
100.838899999516414,4.142299999915188,485,WRI_941,Felcra Jaya Samarahan,4.1423,100.8389,MYS,None,Unknown
101.198800000086834,3.913100000127672,486,WRI_942,Rekahalus,3.9131,101.1988,MYS,None,Unknown
101.512900000462636,-1.466699999933274,487,WRI_943,Kencana Sawit Indonesia,-1.4667,101.5129,IDN,None,Unknown
100.029200000372612,-0.15469999955261,489,WRI_945,AMP Plantation,-0.1547,100.0292,IDN,None,Unknown
99.333600000334897,3.06380000034588,490,WRI_946,PT HUTA BAYU MARSADA,3.0638,99.3336,IDN,None,Unknown
96.442600000185351,4.116199999367576,491,WRI_948,PT FAJAR BAIZURY & BROTHERS,4.1162,96.4426,IDN,None,Unknown
96.898999999304564,5.228399999827552,492,WRI_949,PT SYAUKATH SEJAHTERA,5.2284,96.899,IDN,None,Unknown
98.064200000451493,4.203600000707067,494,WRI_951,PT SISIRAU,4.2036,98.0642,IDN,None,Unknown
103.349299999629281,4.374399999347225,495,WRI_952,KIM LOONG PALM OIL MILLS  SDN BHD,4.3744,103.3493,MYS,None,Unknown
98.421399999451154,3.863100000212685,496,WRI_953,PT HARAPAN JAYA SAWITA JL .,3.8631,98.4214,IDN,None,Unknown
99.618199999618341,2.7846000000114,497,WRI_954,PT KARYA MITRA ANDALAN,2.7846,99.6182,IDN,None,Unknown
98.028499999744724,2.245099999908541,498,WRI_955,PT DELIMA MAKMUR,2.2451,98.0285,IDN,None,Unknown
101.327500000400406,1.081599999909049,501,WRI_959,"ADEI PLANTATION & INDUSTRI, PT",1.0816,101.3275,IDN,None,Unknown
102.092599999448794,-3.309699999780447,502,WRI_962,PT. SANDABI INDAH LESTARI,-3.3097,102.0926,IDN,None,Unknown
96.164399999634583,4.349700000152393,503,WRI_965,PT. Karya Tanah Subur,4.3497,96.1644,IDN,None,Unknown
97.989900000145553,2.316899999495337,504,WRI_966,PT. Perkebunan Lembah Bhakti,2.3169,97.9899,IDN,None,Unknown
101.0810000002256,3.989700000348223,505,WRI_967,Seong Thye Plantations Sdn. Bhd. (Rompin),3.9897,101.081,MYS,None,Unknown
102.481399999265321,2.243500000022122,506,WRI_968,U KERATONG,2.2435,102.4814,MYS,None,Unknown
110.463100000480964,0.729799999563873,507,WRI_969,Global Kalimantan Makmur,0.7298,110.4631,IDN,None,Unknown
110.332400000001996,-0.112300000716697,508,WRI_970,Bintang Harapan Desa,-0.1123,110.3324,IDN,None,Unknown
100.055100000268908,1.078700000796649,509,WRI_973,Era Palmina,1.0787,100.0551,IDN,None,Unknown
102.437699999693507,-2.081000000284222,510,WRI_976,Grahacipta Bangko Jaya,-2.081,102.4377,IDN,None,Unknown
100.154500000404965,1.128700000243929,511,WRI_978,Mazuma Agro Indonesia,1.1287,100.1545,IDN,None,Unknown
98.858300000101735,1.409300000111759,512,WRI_979,Maju Indo Raya,1.4093,98.8583,IDN,None,Unknown
101.241899999609032,-0.057500000044537,513,WRI_981,Kebun Pantai Raja,-0.0575,101.2419,IDN,None,Unknown
101.775200000147521,0.607399999770707,514,WRI_986,PTPN V (Lubuk Datam),0.6074,101.7752,IDN,None,Unknown
101.567100000453678,0.630499999715103,515,WRI_989,Surya Inti Sari Raya,0.6305,101.5671,IDN,None,Unknown
99.826099999295664,2.382199999843022,516,WRI_991,Torusganda (Tambusai Timur),2.3822,99.8261,IDN,None,Unknown
100.99529999987513,-2.330900000678493,517,WRI_994,Sumatra Jaya Agro Lestari(PKS Silaut),-2.3309,100.9953,IDN,None,Unknown
109.317100000023672,1.141799999951577,518,WRI_995,Rana Wastu Kencana,1.1418,109.3171,IDN,None,Unknown
109.504599999810424,1.352600000431302,519,WRI_997,Agronusa Investama,1.3526,109.5046,IDN,None,Unknown
109.424899999956153,-0.022200000382298,520,WRI_999,Bumi Pratama Khatulistiwa,-0.0222,109.4249,IDN,None,Unknown
104.95740000012637,-3.948600000416049,521,WRI_1000,Buluh Cawang Plantation,-3.9486,104.9574,IDN,None,Unknown
95.665500000144519,4.698300000423633,522,WRI_1002,Boswa Megalopolis,4.6983,95.6655,IDN,None,Unknown
97.936700000237195,2.76670000058854,523,WRI_1003,Samudera Sawit Nabati,2.7667,97.9367,IDN,None,Unknown
99.428300000531422,3.064999999662289,524,WRI_1004,Harkat Sejahtera,3.065,99.4283,IDN,None,Unknown
98.217799999680324,4.065199999177525,525,WRI_1005,Jaya Baru Pertama,4.0652,98.2178,IDN,None,Unknown
98.366099999818303,3.94650000018073,526,WRI_1011,Raya Padang Langkat,3.9465,98.3661,IDN,None,Unknown
98.212400000132035,4.017100000029617,527,WRI_1012,Sawit Jaya Makmur Sentosa,4.0171,98.2124,IDN,None,Unknown
98.555000000619145,3.765799999960679,528,WRI_1014,Serdang Cemerlang,3.7658,98.555,IDN,None,Unknown
98.494400000098778,3.349500000455509,529,WRI_1015,Serdang Hulu,3.3495,98.4944,IDN,None,Unknown
99.247799999526976,3.270499999925453,530,WRI_1021,Sumber Sawit Makmur,3.2705,99.2478,IDN,None,Unknown
97.935700000154512,4.522799999784093,532,WRI_1024,Ensem Sawita,4.5228,97.9357,IDN,None,Unknown
99.482399999166745,3.163899999674205,533,WRI_1025,Tenera Lestari,3.1639,99.4824,IDN,None,Unknown
97.915300000263926,2.43589999931455,534,WRI_1026,Nafasindo,2.4359,97.9153,IDN,None,Unknown
99.393399999890775,2.778699999815698,535,WRI_1027,Agrindo Indah Persada,2.7787,99.3934,IDN,None,Unknown
104.774499999821757,-3.72679999963742,536,WRI_1031,Campang Tiga,-3.7268,104.7745,IDN,None,Unknown
104.265499999945519,-2.848599999688598,537,WRI_1033,Karya Sawit Lestari,-2.8486,104.2655,IDN,None,Unknown
103.56849999979201,-2.739199999628473,538,WRI_1037,Pinago Utama,-2.7392,103.5685,IDN,None,Unknown
103.911100000279092,-3.338100000462887,539,WRI_1045,Suryabumi Agro Langgeng,-3.3381,103.9111,IDN,None,Unknown
103.818499999807131,-2.626999999752206,540,WRI_1046,Musi Banyuasin Indah,-2.627,103.8185,IDN,None,Unknown
104.198200000218492,-4.049600000584788,541,WRI_1048,Minanga Ogan,-4.0496,104.1982,IDN,None,Unknown
100.071499999828632,1.062800000195732,542,WRI_1049,Permata Hijau Pasaman,1.0628,100.0715,IDN,None,Unknown
99.720900000476519,0.121000000015931,543,WRI_1050,Gersindo Minang Plantation,0.121,99.7209,IDN,None,Unknown
101.754100000648236,0.651200000454689,544,WRI_1051,Siak Prima Sakti,0.6512,101.7541,IDN,None,Unknown
102.496700000081532,-4.010300000004346,545,WRI_1052,Agrindo Indah Persada 3,-4.0103,102.4967,IDN,None,Unknown
102.301100000074044,-1.96390000069511,546,WRI_1053,Agrindo Indah Persada 2,-1.9639,102.3011,IDN,None,Unknown
101.138599999599535,0.6266999999361,547,WRI_1054,Bumi Mentari Karya,0.6267,101.1386,IDN,None,Unknown
100.048999999315228,-0.100400000041472,548,WRI_1055,Perkebunan Pelalu Raya,-0.1004,100.049,IDN,None,Unknown
101.278000000348896,-2.601299999619203,549,WRI_1056,Agro Muko (PKS Muko-Muko),-2.6013,101.278,IDN,None,Unknown
102.401799999868459,-3.779899999764301,551,WRI_1058,Karya Sawitindo Mas,-3.7799,102.4018,IDN,None,Unknown
101.551900000094875,-1.524000000042158,552,WRI_1062,Tidar Kerinci Agung,-1.524,101.5519,IDN,None,Unknown
103.11320000031462,-4.563199999507284,553,WRI_1065,Anugerah Pelangi Sukses,-4.5632,103.1132,IDN,None,Unknown
99.477100000075879,0.229899999932302,554,WRI_1066,Bakrie Pasaman Plantation,0.2299,99.4771,IDN,None,Unknown
101.639900000186458,-0.728200000490111,555,WRI_1068,Tribakti Sari Mas,-0.7282,101.6399,IDN,None,Unknown
101.16269999934697,-2.385700000595233,556,WRI_1070,Sapta Sentosa Jaya Abadi,-2.3857,101.1627,IDN,None,Unknown
99.877299999936909,-0.320299999848118,557,WRI_1072,Mutiara Agam,-0.3203,99.8773,IDN,None,Unknown
102.368999999850701,-3.777900000628895,558,WRI_1073,Palma Mas Sejati,-3.7779,102.369,IDN,None,Unknown
103.543100000386218,-1.348499999860338,559,WRI_1079,Batanghari Sawit Sejahtera,-1.3485,103.5431,IDN,None,Unknown
101.276699999792228,1.151699999675186,560,WRI_1081,Sawit Anugrah Sejahtera,1.1517,101.2767,IDN,None,Unknown
103.861199999296232,-1.495100000207687,561,WRI_1082,Ricky Kurniawan Kertapersada,-1.4951,103.8612,IDN,None,Unknown
103.62789999931482,-1.444399999191891,562,WRI_1085,Petaling Mandraguna,-1.4444,103.6279,IDN,None,Unknown
101.054899999414459,0.162100000626326,563,WRI_1087,Ciliandra Perkasa,0.1621,101.0549,IDN,None,Unknown
101.729700000426874,0.537999999596614,564,WRI_1088,Meridian Sejati Surya Plant,0.538,101.7297,IDN,None,Unknown
101.305299999462648,1.393799999871139,565,WRI_1089,Muriniwood Indah Industry,1.3938,101.3053,IDN,None,Unknown
103.165100000564621,-1.06870000079427,566,WRI_1092,Trimitra Lestari,-1.0687,103.1651,IDN,None,Unknown
103.328000000113462,-1.346700000033368,567,WRI_1093,Brahma Bina Bakti,-1.3467,103.328,IDN,None,Unknown
99.382799999912407,0.332900000074994,568,WRI_1098,Bintara Tani Nusantara,0.3329,99.3828,IDN,None,Unknown
100.027600000240284,-0.061300000112626,574,WRI_1105,Inkud Agritama,-0.0613,100.0276,IDN,None,Unknown
104.12530000002829,-2.608100000369208,575,WRI_1106,Hindoli (PKS Sei Lilin),-2.6081,104.1253,IDN,None,Unknown
103.737400000735391,-3.459999999558349,576,WRI_1108,Cipta Futura,-3.46,103.7374,IDN,None,Unknown
105.158799999715256,-4.029899999958681,577,WRI_1109,Garuda Bumi Perkasa,-4.0299,105.1588,IDN,None,Unknown
104.15030000029931,-2.535800000236356,580,WRI_1112,Cahaya Cemerlang Lestari,-2.5358,104.1503,IDN,None,Unknown
102.97940000002842,-1.30139999961562,581,WRI_1117,Inti Indosawit Subur (PKS Tungkal),-1.3014,102.9794,IDN,None,Unknown
102.094999999647285,-0.223200000104646,583,WRI_1119,Inti Indosawit Subur (PKS Ukai II),-0.2232,102.095,IDN,None,Unknown
101.832299999929276,0.433299999663669,584,WRI_1120,Inti Indosawit Subur (PKS Buatan II),0.4333,101.8323,IDN,None,Unknown
110.193900000674546,-0.038899999779574,585,WRI_1121,Surya Borneo Indah,-0.0389,110.1939,IDN,None,Unknown
109.252100000037686,-0.266400000012542,586,WRI_1123,Rezeki Kencana,-0.2664,109.2521,IDN,None,Unknown
110.808799999876996,-0.040799999926255,587,WRI_1124,Multi Jaya Perkasa,-0.0408,110.8088,IDN,None,Unknown
103.724700000134177,-1.533999999985963,589,WRI_1130,Erasakti Wira Forestama,-1.534,103.7247,IDN,None,Unknown
111.59680000037018,-0.309199999798338,590,WRI_1131,PT. Sinar Dinamika Kapuas,-0.3092,111.5968,IDN,None,Unknown
110.431400000105,0.359100000388136,591,WRI_1132,Mitra Austral Sejahtera,0.3591,110.4314,IDN,None,Unknown
101.038999999446929,4.305200000240667,593,WRI_1134,BKT.KAPAH,4.3052,101.039,MYS,None,Unknown
100.392399999868516,1.783700000523535,594,WRI_1139,PT. Kencana Andalan Nusantara,1.7837,100.3924,IDN,None,Unknown
109.845500000606066,0.554399999475308,595,WRI_1146,Pratama Prosentindo,0.5544,109.8455,IDN,None,Unknown
102.840599999328703,-4.37820000014599,596,WRI_1148,Sinar Bengkulu Selatan,-4.3782,102.8406,IDN,None,Unknown
105.096700000418309,-3.706900000353161,597,WRI_1149,Selapan Jaya (Limau Mungkur),-3.7069,105.0967,IDN,None,Unknown
105.109800000154294,-3.941999999467172,598,WRI_1150,Mutiara Bunda Jaya,-3.942,105.1098,IDN,None,Unknown
96.494699999553589,3.807699999325488,599,WRI_1151,Surya Panen Subur,3.8077,96.4947,IDN,None,Unknown
101.299799999456937,-2.665499999584382,600,WRI_1154,Sentosa Sejahtera Sejati,-2.6655,101.2998,IDN,None,Unknown
116.186300000408536,-2.80769999944206,601,WRI_1155,Sinar Kencana Inti Perkasa (Senakin),-2.8077,116.1863,IDN,None,Unknown
98.407400000089936,3.765799999960679,602,WRI_1156,Sumber Kembang Jaya,3.7658,98.4074,IDN,None,Unknown
100.430999999467687,1.871200000170997,603,WRI_1157,Cipta Agro Sejati,1.8712,100.431,IDN,None,Unknown
98.179600000114235,3.931900000465052,604,WRI_1158,PT BINA RAHMAD MADANI,3.9319,98.1796,IDN,None,Unknown
98.362799999994536,3.963300000119045,605,WRI_1161,PT JAYA PALMA NUSANTARA,3.9633,98.3628,IDN,None,Unknown
109.546199999657702,-0.020800000365096,610,WRI_1172,Pundi Lahan Khatulistiwa,-0.0208,109.5462,IDN,None,Unknown
101.663599999900768,-1.075999999602985,611,WRI_1174,Dharmasraya Lestarindo,-1.076,101.6636,IDN,None,Unknown
100.616900000020394,0.995799999245022,612,WRI_1175,Citra Bumi Agro,0.9958,100.6169,IDN,None,Unknown
97.909699999800793,4.574299999807857,613,WRI_1178,ANUGRAH FAJAR REZEKI,4.5743,97.9097,IDN,None,Unknown
101.750900000383581,-1.439399999672829,614,WRI_1179,JAMIKA RAYA,-1.4394,101.7509,IDN,None,Unknown
98.794199999741053,3.541899999670459,615,WRI_1180,PALM TRIMITRA INDOTAMA,3.5419,98.7942,IDN,None,Unknown
99.22250000057862,3.342299999734099,616,WRI_1181,KARYA SERASI JAYA ABADI,3.3423,99.2225,IDN,None,Unknown
118.134099999805414,5.20429999968099,617,WRI_1182,SANG GUAN,5.2043,118.1341,MYS,None,Unknown
100.127299999952044,1.473299999788257,618,WRI_1183,PT PERKEBUNAN MILANO PINANG AWAN POM,1.4733,100.1273,IDN,None,Unknown
101.541700000149604,2.872599999813963,619,WRI_1186,unknown,2.8726,101.5417,MYS,None,Unknown
102.927000000186226,2.986500000233308,620,WRI_1188,unknown,2.9865,102.927,MYS,None,Unknown
103.036100000675404,3.101999999693998,621,WRI_1189,unknown,3.102,103.0361,MYS,None,Unknown
103.100099999680339,3.336700000002354,623,WRI_1192,unknown,3.3367,103.1001,MYS,None,Unknown
103.762800000141169,1.7822000006684,624,WRI_1193,unknown,1.7822,103.7628,MYS,None,Unknown
103.2092999997286,1.856099999384649,625,WRI_1195,unknown,1.8561,103.2093,MYS,None,Unknown
102.314199999810015,3.468899999712378,626,WRI_1197,unknown,3.4689,102.3142,MYS,None,Unknown
102.767099999987209,3.631799999360195,627,WRI_1198,unknown,3.6318,102.7671,MYS,None,Unknown
102.222399999404161,3.982900000544395,628,WRI_1199,unknown,3.9829,102.2224,MYS,None,Unknown
101.856000000541925,3.766800000583759,629,WRI_1200,unknown,3.7668,101.856,MYS,None,Unknown
101.981200000116885,3.528000000115392,630,WRI_1201,unknown,3.528,101.9812,MYS,None,Unknown
103.000700000442578,2.638300000625383,631,WRI_1202,unknown,2.6383,103.0007,MYS,None,Unknown
102.912300000317941,3.671999999824085,632,WRI_1203,unknown,3.672,102.9123,MYS,None,Unknown
100.968999999945751,4.24379999977968,633,WRI_1206,unknown,4.2438,100.969,MYS,None,Unknown
101.467700000317578,2.845599999741415,635,WRI_1211,unknown,2.8456,101.4677,MYS,None,Unknown
100.101300000496622,1.944800000535953,636,WRI_1212,unknown,1.9448,100.1013,IDN,None,Unknown
102.220899999729284,5.48610000026321,638,WRI_1217,unknown,5.4861,102.2209,MYS,None,Unknown
102.91480000007553,2.770999999759057,640,WRI_1221,unknown,2.771,102.9148,MYS,None,Unknown
101.474000000389495,2.921999999833775,641,WRI_1224,unknown,2.922,101.474,MYS,None,Unknown
-84.283900000258811,9.533700000489644,642,WRI_1226,unknown,9.5337,-84.2839,CRI,None,Unknown
-84.085900000052803,9.407100000624389,643,WRI_1227,unknown,9.4071,-84.0859,CRI,None,Unknown
102.233000000280867,3.273399999664435,644,WRI_1231,unknown,3.2734,102.233,MYS,None,Unknown
98.09109999953219,4.356900000228316,653,WRI_1260,unknown,4.3569,98.0911,IDN,None,Unknown
102.889399999771456,1.97469999987596,655,WRI_1268,unknown,1.9747,102.8894,MYS,None,Unknown
99.618500000092311,2.695099999914467,656,WRI_1272,unknown,2.6951,99.6185,IDN,None,Unknown
99.349999999894649,3.033300000080745,657,WRI_1273,unknown,3.0333,99.35,IDN,None,Unknown
99.63269999947012,2.87400000016366,658,WRI_1274,unknown,2.874,99.6327,IDN,None,Unknown
98.94249999987899,3.522000000071987,660,WRI_1278,unknown,3.522,98.9425,IDN,None,Unknown
101.411999999753334,3.08819999997437,661,WRI_1280,unknown,3.0882,101.412,MYS,None,Unknown
118.473600000485291,5.33719999997188,662,WRI_1282,unknown,5.3372,118.4736,MYS,None,Unknown
101.408099999879923,3.136100000684551,663,WRI_1283,unknown,3.1361,101.4081,MYS,None,Unknown
101.459100000504648,3.074599999524134,664,WRI_1285,unknown,3.0746,101.4591,MYS,None,Unknown
99.155800000002912,1.175600000140539,666,WRI_1289,unknown,1.1756,99.1558,IDN,None,Unknown
100.663599999840329,4.216199999994712,668,WRI_1292,unknown,4.2162,100.6636,MYS,None,Unknown
101.376200000385737,3.133000000615006,669,WRI_1293,unknown,3.133,101.3762,MYS,None,Unknown
100.673400000650844,4.423199999638103,670,WRI_1297,unknown,4.4232,100.6734,MYS,None,Unknown
97.910400000307817,4.559600000431313,671,WRI_1302,unknown,4.5596,97.9104,IDN,None,Unknown
98.051400000291181,4.241900000462806,673,WRI_1304,unknown,4.2419,98.0514,IDN,None,Unknown
99.40390000031006,3.203899999560644,674,WRI_1305,unknown,3.2039,99.4039,IDN,None,Unknown
98.393300000271253,3.759700000426454,676,WRI_1309,unknown,3.7597,98.3933,IDN,None,Unknown
99.769999999596621,2.100000000777235,677,WRI_1310,unknown,2.1,99.77,IDN,None,Unknown
100.109200000700866,2.351200000684728,678,WRI_1311,unknown,2.3512,100.1092,IDN,None,Unknown
96.578500000196087,3.888899999994913,679,WRI_1313,unknown,3.8889,96.5785,IDN,None,Unknown
96.262199999638327,4.059999999676934,680,WRI_1314,unknown,4.06,96.2622,IDN,None,Unknown
101.991400000062157,0.150599999841872,681,WRI_1315,unknown,0.1506,101.9914,IDN,None,Unknown
99.556399999897025,3.148099999590422,682,WRI_1316,unknown,3.1481,99.5564,IDN,None,Unknown
98.203200000269462,3.851599999286595,683,WRI_1318,unknown,3.8516,98.2032,IDN,None,Unknown
103.160600000641608,3.619800000460826,684,WRI_1319,unknown,3.6198,103.1606,MYS,None,Unknown
101.320600000278915,4.102499999823287,692,WRI_1332,unknown,4.1025,101.3206,MYS,None,Unknown
102.175800000041647,5.099700000655956,693,WRI_1333,unknown,5.0997,102.1758,MYS,None,Unknown
101.140199999731877,4.056099999795758,694,WRI_1334,unknown,4.0561,101.1402,MYS,None,Unknown
101.167300000625701,3.998699999525428,695,WRI_1339,unknown,3.9987,101.1673,MYS,None,Unknown
100.712899999875305,4.710700000251538,696,WRI_1340,unknown,4.7107,100.7129,MYS,None,Unknown
101.165000000884675,4.161400000661196,697,WRI_1341,unknown,4.1614,101.165,MYS,None,Unknown
100.408600000310017,1.139400000180133,698,WRI_1343,unknown,1.1394,100.4086,IDN,None,Unknown
101.417999999351238,3.396200000062585,700,WRI_1346,unknown,3.3962,101.418,MYS,None,Unknown
103.538299999989235,1.730899999973872,702,WRI_1349,unknown,1.7309,103.5383,MYS,None,Unknown
101.467399999843622,3.49739999977512,704,WRI_1352,unknown,3.4974,101.4674,MYS,None,Unknown
100.694999999742336,4.608000000276274,705,WRI_1354,unknown,4.608,100.695,MYS,None,Unknown
101.974900000044983,4.891500000073512,707,WRI_1356,unknown,4.8915,101.9749,MYS,None,Unknown
102.5073000000599,3.410700000338676,708,WRI_1358,unknown,3.4107,102.5073,MYS,None,Unknown
102.918199999458423,3.603800000343709,709,WRI_1359,unknown,3.6038,102.9182,MYS,None,Unknown
102.182300000130098,3.504000000400471,710,WRI_1361,unknown,3.504,102.1823,MYS,None,Unknown
101.19109999989918,3.957999999601477,711,WRI_1362,unknown,3.958,101.1911,MYS,None,Unknown
101.390700000237487,3.103599999918981,712,WRI_1363,unknown,3.1036,101.3907,MYS,None,Unknown
101.650100000131729,2.851700000334981,713,WRI_1364,unknown,2.8517,101.6501,MYS,None,Unknown
102.588500000487386,3.465699999169209,714,WRI_1365,unknown,3.4657,102.5885,MYS,None,Unknown
100.96830000033701,3.853800000252284,716,WRI_1367,unknown,3.8538,100.9683,MYS,None,Unknown
100.902800000758845,3.889700000314223,717,WRI_1368,unknown,3.8897,100.9028,MYS,None,Unknown
101.463099999937157,2.848400000054804,718,WRI_1369,unknown,2.8484,101.4631,MYS,None,Unknown
101.65529999966347,2.650299999660219,719,WRI_1370,unknown,2.6503,101.6553,MYS,None,Unknown
103.200299999882574,4.592999999634083,720,WRI_1371,unknown,4.593,103.2003,MYS,None,Unknown
99.963400000320476,1.48760000007731,721,WRI_1372,unknown,1.4876,99.9634,IDN,None,Unknown
103.059400000356632,2.165299999715438,722,WRI_1373,unknown,2.1653,103.0594,MYS,None,Unknown
-83.003199999890001,8.629499999401629,724,WRI_1376,unknown,8.6295,-83.0032,CRI,None,Unknown
102.836399999879632,2.615999999979874,728,WRI_1380,unknown,2.616,102.8364,MYS,None,Unknown
100.57880000001343,0.725899999984875,729,WRI_1381,unknown,0.7259,100.5788,IDN,None,Unknown
101.109699999455145,0.643999999858975,730,WRI_1382,unknown,0.644,101.1097,IDN,None,Unknown
100.750900000323171,0.578799999351462,731,WRI_1383,unknown,0.5788,100.7509,IDN,None,Unknown
102.242400000159947,-3.644399999984106,732,WRI_1384,unknown,-3.6444,102.2424,IDN,None,Unknown
103.124299999885167,3.714299999921737,733,WRI_1390,unknown,3.7143,103.1243,MYS,None,Unknown
101.016200000256191,4.449600000108711,734,WRI_1391,unknown,4.4496,101.0162,MYS,None,Unknown
100.67350000020997,4.244399999299957,735,WRI_1392,unknown,4.2444,100.6735,MYS,None,Unknown
103.376300000065697,1.767200000627805,736,WRI_1394,unknown,1.7672,103.3763,MYS,None,Unknown
103.058600000290483,3.087500000370597,737,WRI_1397,unknown,3.0875,103.0586,MYS,None,Unknown
103.137900000111657,2.243500000022122,739,WRI_1399,unknown,2.2435,103.1379,MYS,None,Unknown
103.448699999765367,1.762200000276214,740,WRI_1400,unknown,1.7622,103.4487,MYS,None,Unknown
103.506100000021092,2.679299999597486,741,WRI_1401,unknown,2.6793,103.5061,MYS,None,Unknown
102.857999999869449,2.990500000614951,742,WRI_1402,unknown,2.9905,102.858,MYS,None,Unknown
100.694999999742336,4.648000000242558,743,WRI_1407,unknown,4.648,100.695,MYS,None,Unknown
100.896699999805193,0.658900000438216,744,WRI_1408,unknown,0.6589,100.8967,IDN,None,Unknown
100.630199999772941,5.582299999933088,745,WRI_1409,unknown,5.5823,100.6302,MYS,None,Unknown
100.710000000084619,5.395099999863677,746,WRI_1413,unknown,5.3951,100.71,MYS,None,Unknown
103.109400000000335,-1.077600000100223,747,WRI_1417,unknown,-1.0776,103.1094,IDN,None,Unknown
103.670999999735315,2.381200000173586,748,WRI_1419,unknown,2.3812,103.671,MYS,None,Unknown
101.088700000413283,4.818000000496024,749,WRI_1421,unknown,4.818,101.0887,MYS,None,Unknown
100.937800000060292,3.894500000615393,750,WRI_1422,unknown,3.8945,100.9378,MYS,None,Unknown
117.050000000425143,6.714399999592032,751,WRI_1423,unknown,6.7144,117.05,MYS,None,Unknown
102.399399999669967,2.805299999491182,752,WRI_1426,unknown,2.8053,102.3994,MYS,None,Unknown
114.001200000699441,4.282800000030334,753,WRI_1427,unknown,4.2828,114.0012,MYS,None,Unknown
102.413399999929553,2.594600000141649,754,WRI_1432,unknown,2.5946,102.4134,MYS,None,Unknown
101.811299999989089,3.910299999259645,755,WRI_1433,unknown,3.9103,101.8113,MYS,None,Unknown
101.499500000252695,2.875599999998415,756,WRI_1435,unknown,2.8756,101.4995,MYS,None,Unknown
97.926599999851021,4.061199999986122,757,WRI_1445,unknown,4.0612,97.9266,IDN,None,Unknown
99.04330000013087,3.331700000146421,758,WRI_1446,unknown,3.3317,99.0433,IDN,None,Unknown
101.97650000017731,0.638800000083762,759,WRI_1449,unknown,0.6388,101.9765,IDN,None,Unknown
100.701799999406418,1.696900000159374,762,WRI_1454,unknown,1.6969,100.7018,IDN,None,Unknown
100.776999999337676,0.529000000059103,763,WRI_1455,unknown,0.529,100.777,IDN,None,Unknown
100.613200000163573,0.396500000027318,764,WRI_1456,unknown,0.3965,100.6132,IDN,None,Unknown
103.959400000231369,1.521099999495226,783,WRI_1493,unknown,1.5211,103.9594,MYS,None,Unknown
102.47690000024059,2.496099999272387,784,WRI_1494,unknown,2.4961,102.4769,MYS,None,Unknown
117.84370000004229,5.839300000747937,119,WRI_258,KILANG KELAPA SAWIT SAKILAN,5.8393,117.8437,MYS,RSPO Certified,Unknown
102.303399999815099,3.205800000097146,129,WRI_276,KKS Bukit Mendi,3.2058,102.3034,MYS,RSPO Certified,Unknown
117.781300000271344,5.333999999603042,136,WRI_284,K.K.S. SYARIMO,5.334,117.7813,MYS,RSPO Certified,Unknown
117.463700000055255,5.766699999448176,142,WRI_293,Rekahalus,5.7667,117.4637,MYS,RSPO Certified,Unknown
102.032199999843272,0.074699999837873,144,WRI_302,PT INDOMAKMUR SAWIT BERJAYA (PASIR PANGARAYAN) Jl,0.0747,102.0322,IDN,RSPO Certified,Unknown
101.333099999965242,1.082199999875175,148,WRI_305,PT ADEI PLANTATION & INDUSTRY (MANDAU) Jl,1.0822,101.3331,IDN,RSPO Certified,Unknown
98.059400000054509,4.231899999506515,158,WRI_311,PT SOCFIN INDONESIA (SEI LIPUT MILL),4.2319,98.0594,IDN,RSPO Certified,Unknown
101.050299999932321,0.783199999467483,202,WRI_460,Nagasakti,0.7832,101.0503,IDN,RSPO Certified,Unknown
101.263300000480598,0.971400000028159,204,WRI_464,Ujung Tanjung,0.9714,101.2633,IDN,RSPO Certified,Unknown
104.128199999819003,-2.612800000298482,205,WRI_495,Hindoli,-2.6128,104.1282,IDN,RSPO Certified,Unknown
104.971600000402475,-3.838900000580939,207,WRI_591,Aek Tarum,-3.8389,104.9716,IDN,RSPO Certified,Unknown
116.851800000202616,1.123700000184389,219,WRI_72,Swakarsa Sinarsentosa Mill,1.1237,116.8518,IDN,RSPO Certified,Unknown
99.839399999946494,2.319199999378418,230,WRI_457,Padang Halaban,2.3192,99.8394,IDN,RSPO Certified,Unknown
99.886900000730876,1.654499999766083,231,WRI_458,Langga Payung,1.6545,99.8869,IDN,RSPO Certified,Unknown
101.076399999845165,0.533499999676795,233,WRI_461,Ramarama,0.5335,101.0764,IDN,RSPO Certified,Unknown
101.206400000715391,0.92860000011654,234,WRI_462,Libo,0.9286,101.2064,IDN,RSPO Certified,Unknown
104.075300000384601,1.793599999735557,253,WRI_510,WAHA,1.7936,104.0753,MYS,RSPO Certified,Unknown
101.485800000467094,3.694299999927679,257,WRI_517,Kilang Kelapa Sawit Tanjong Malim,3.6943,101.4858,MYS,RSPO Certified,Unknown
102.907999999513152,2.718900000454703,258,WRI_529,Syarikat Pukin Ladang Kelapa Sawit,2.7189,102.908,MYS,RSPO Certified,Unknown
104.103300000005419,1.578300000001055,264,WRI_542,SEMENCHU POM,1.5783,104.1033,MYS,RSPO Certified,Unknown
101.658899999961207,0.591400000023017,295,WRI_627,PT ANEKA INTIPERSADA (TELUK SIAK),0.5914,101.6589,IDN,RSPO Certified,Unknown
100.203099999932874,1.842800000126882,308,WRI_675,PT PERKEBUNAN MILANO PINANG AWAN POM,1.8428,100.2031,IDN,RSPO Certified,Unknown
112.511299999198343,-2.590499999647209,313,WRI_682,MUSTIKA SEMBULUH 1,-2.5905,112.5113,IDN,RSPO Certified,Unknown
98.267700000663226,3.478200000705174,319,WRI_697,PT PP LONDON SUMATRA INDONESIA TURANGIE MILL,3.4782,98.2677,IDN,RSPO Certified,Unknown
103.247999999785222,4.403000000464079,357,WRI_748,Temerloh Mill,4.403,103.248,MYS,RSPO Certified,Unknown
113.599700000281715,3.163600000787841,383,WRI_779,Kilang Kelapa Sawit Fortuna,3.1636,113.5997,MYS,RSPO Certified,Unknown
111.614300000470038,-2.305600000358655,388,WRI_793,Sawit Sumbermas Sarana,-2.3056,111.6143,IDN,RSPO Certified,Unknown
107.876699999472351,-2.996900000118417,391,WRI_799,Sahabat Mewah Dan Makmur,-2.9969,107.8767,IDN,RSPO Certified,Unknown
101.044300000334431,0.8338999995577,395,WRI_806,Buana Wiralestari Mas- PKS Kijang,0.8339,101.0443,IDN,RSPO Certified,Unknown
102.30629999960577,-0.570599999766352,407,WRI_822,Meganusa Intisawit,-0.5706,102.3063,IDN,RSPO Certified,Unknown
100.590300000515413,1.66330000009382,416,WRI_836,Salim Ivomas Pratama - PKS Kayangan,1.6633,100.5903,IDN,RSPO Certified,Unknown
118.060299999989979,4.704200000034418,426,WRI_854,BINUANG OIL MILL,4.7042,118.0603,MYS,RSPO Certified,Unknown
102.910399999711643,5.30809999950884,438,WRI_869,Tetangga Akrab Palm Oil Mill,5.3081,102.9104,MYS,RSPO Certified,Unknown
97.838900000233451,4.70809999957315,442,WRI_876,Perkasa Subur Sakti,4.7081,97.8389,IDN,RSPO Certified,Unknown
101.218299999453805,0.757899999941816,468,WRI_916,Sekarbumi Alamlestari Mill,0.7579,101.2183,IDN,RSPO Certified,Unknown
104.218899999684709,1.633600000606289,482,WRI_937,Lian Hup Oil Mill,1.6336,104.2189,MYS,RSPO Certified,Unknown
104.869499999593927,-3.627000000086687,488,WRI_944,Tania Selatan,-3.627,104.8695,IDN,RSPO Certified,Unknown
107.771799999330568,-3.031300000454886,500,WRI_957,TANJUNG KEMBIRI MILL,-3.0313,107.7718,IDN,RSPO Certified,Unknown
101.369399999823329,-2.716400000252305,550,WRI_1057,Agro Muko (PKS Bunga Tanjung),-2.7164,101.3694,IDN,RSPO Certified,Unknown
103.407299999934637,-2.986400000126745,578,WRI_1110,Bina Sains Cemerlang,-2.9864,103.4073,IDN,RSPO Certified,Unknown
103.750800000047008,-2.916199999936232,579,WRI_1111,Guthrie Pecconina Indonesia,-2.9162,103.7508,IDN,RSPO Certified,Unknown
103.201200000406189,-1.5851000002896,582,WRI_1118,Inti Indosawit Subur (PKS Muara Bulian),-1.5851,103.2012,IDN,RSPO Certified,Unknown
105.476399999931374,-1.90140000031771,588,WRI_1128,Leidong West,-1.9014,105.4764,IDN,RSPO Certified,Unknown
110.482300000272303,0.267999999813926,592,WRI_1133,Sime Indo Agro,0.268,110.4823,IDN,RSPO Certified,Unknown
102.504499999828312,2.786900000419781,622,WRI_1191,unknown,2.7869,102.5045,MYS,RSPO Certified,Unknown
102.576099999461846,3.269200000133563,634,WRI_1209,unknown,3.2692,102.5761,MYS,RSPO Certified,Unknown
103.827499999653156,10.908300000744253,637,WRI_1215,unknown,10.9083,103.8275,KHM,RSPO Certified,Unknown
102.597399999876004,3.346300000089179,639,WRI_1220,unknown,3.3463,102.5974,MYS,RSPO Certified,Unknown
102.40829999995691,2.735000000162738,648,WRI_1249,unknown,2.735,102.4083,MYS,RSPO Certified,Unknown
103.468600000063731,1.78060000073314,649,WRI_1252,unknown,1.7806,103.4686,MYS,RSPO Certified,Unknown
100.172199999623089,1.703600000122407,654,WRI_1266,unknown,1.7036,100.1722,IDN,RSPO Certified,Unknown
99.110600000756222,3.288099999562615,659,WRI_1277,unknown,3.2881,99.1106,IDN,RSPO Certified,Unknown
100.066700000329973,2.066699999903213,665,WRI_1288,unknown,2.0667,100.0667,IDN,RSPO Certified,Unknown
99.430299999798535,3.164899999819706,667,WRI_1290,unknown,3.1649,99.4303,IDN,RSPO Certified,Unknown
99.091899999658779,3.531099999758451,672,WRI_1303,unknown,3.5311,99.0919,IDN,RSPO Certified,Unknown
103.640799999932554,1.825199999966327,685,WRI_1321,unknown,1.8252,103.6408,MYS,RSPO Certified,Unknown
102.31009999992007,3.569999999638925,699,WRI_1345,unknown,3.57,102.3101,MYS,RSPO Certified,Unknown
101.862800000205993,4.201199999960465,701,WRI_1347,unknown,4.2012,101.8628,MYS,RSPO Certified,Unknown
103.462299999991828,1.985400000115436,703,WRI_1350,unknown,1.9854,103.4623,MYS,RSPO Certified,Unknown
102.783300000428696,2.699999999804431,706,WRI_1355,unknown,2.7,102.7833,MYS,RSPO Certified,Unknown
100.985799999538543,3.969399999890997,715,WRI_1366,unknown,3.9694,100.9858,MYS,RSPO Certified,Unknown
160.218499999442173,-9.442499999906145,723,WRI_1374,unknown,-9.4425,160.2185,PNG,RSPO Certified,Unknown
103.462099999975308,1.835700000004498,738,WRI_1398,unknown,1.8357,103.4621,MYS,RSPO Certified,Unknown
101.824999999774676,0.434400000108793,760,WRI_1450,unknown,0.4344,101.825,IDN,RSPO Certified,Unknown
99.581400000168045,3.040999999648039,761,WRI_1452,unknown,3.041,99.5814,IDN,RSPO Certified,Unknown
